HIERARCHY
ROOT Hips
{
	OFFSET -0.001795 -0.223333 0.028219
	CHANNELS 6 Xposition Yposition Zposition Zrotation Yrotation Xrotation 
	JOINT LeftUpLeg
	{
		OFFSET 0.069520 -0.091406 -0.006815
		CHANNELS 3 Zrotation Yrotation Xrotation
		JOINT LeftLeg
		{
			OFFSET 0.034277 -0.375199 -0.004496
			CHANNELS 3 Zrotation Yrotation Xrotation
			JOINT LeftFoot
			{
				OFFSET -0.013596 -0.397961 -0.043693
				CHANNELS 3 Zrotation Yrotation Xrotation
				JOINT LeftToe
				{
					OFFSET 0.026358 -0.055791 0.119288
					CHANNELS 3 Zrotation Yrotation Xrotation
					End Site
					{
						OFFSET 0.000000 0.000000 0.000000
					}
				}
			}
		}
	}
	JOINT RightUpLeg
	{
		OFFSET -0.067670 -0.090522 -0.004320
		CHANNELS 3 Zrotation Yrotation Xrotation
		JOINT RightLeg
		{
			OFFSET -0.038290 -0.382569 -0.008850
			CHANNELS 3 Zrotation Yrotation Xrotation
			JOINT RightFoot
			{
				OFFSET 0.015774 -0.398415 -0.042312
				CHANNELS 3 Zrotation Yrotation Xrotation
				JOINT RightToe
				{
					OFFSET -0.025372 -0.048144 0.123348
					CHANNELS 3 Zrotation Yrotation Xrotation
					End Site
					{
						OFFSET 0.000000 0.000000 0.000000
					}
				}
			}
		}
	}
	JOINT Spine
	{
		OFFSET -0.002533 0.108963 -0.026696
		CHANNELS 3 Zrotation Yrotation Xrotation
		JOINT Spine1
		{
			OFFSET 0.005487 0.135180 0.001092
			CHANNELS 3 Zrotation Yrotation Xrotation
			JOINT Spine2
			{
				OFFSET 0.001457 0.052922 0.025425
				CHANNELS 3 Zrotation Yrotation Xrotation
				JOINT Neck
				{
					OFFSET -0.002778 0.213870 -0.042857
					CHANNELS 3 Zrotation Yrotation Xrotation
					JOINT Head
					{
						OFFSET 0.005152 0.064970 0.051349
						CHANNELS 3 Zrotation Yrotation Xrotation
						End Site
						{
							OFFSET 0.000000 0.000000 0.000000
						}
					}
				}
				JOINT LeftShoulder
				{
					OFFSET 0.078845 0.121749 -0.034090
					CHANNELS 3 Zrotation Yrotation Xrotation
					JOINT LeftArm
					{
						OFFSET 0.090977 0.030469 -0.008868
						CHANNELS 3 Zrotation Yrotation Xrotation
						JOINT LeftForeArm
						{
							OFFSET 0.259612 -0.012772 -0.027456
							CHANNELS 3 Zrotation Yrotation Xrotation
							JOINT LeftHand
							{
								OFFSET 0.249234 0.008986 -0.001171
								CHANNELS 3 Zrotation Yrotation Xrotation
								End Site
								{
									OFFSET 0.000000 0.000000 0.000000
								}
							}
						}
					}
				}
				JOINT RightShoulder
				{
					OFFSET -0.081759 0.118833 -0.038615
					CHANNELS 3 Zrotation Yrotation Xrotation
					JOINT RightArm
					{
						OFFSET -0.096012 0.032551 -0.009143
						CHANNELS 3 Zrotation Yrotation Xrotation
						JOINT RightForeArm
						{
							OFFSET -0.253742 -0.013329 -0.021401
							CHANNELS 3 Zrotation Yrotation Xrotation
							JOINT RightHand
							{
								OFFSET -0.255298 0.007772 -0.005559
								CHANNELS 3 Zrotation Yrotation Xrotation
								End Site
								{
									OFFSET 0.000000 0.000000 0.000000
								}
							}
						}
					}
				}
			}
		}
	}
}
MOTION
Frames: 116
Frame Time: 0.050000
0.000000 1.145373 0.000000 1.201522 -1.993607 -6.160098 0.058293 0.226250 2.394048 0.309964 0.794138 -20.709708 22.404272 23.278070 105.225210 0.000000 0.000000 0.000000 -0.941850 0.161300 -1.663987 -2.382389 -0.791579 -18.670748 -29.544544 -23.691570 111.299728 0.000000 0.000000 0.000000 -2.865823 -0.187766 11.443359 4.470397 1.064325 -46.144096 -2.059120 1.229011 46.771739 3.625192 3.068722 -76.415537 0.000000 0.000000 0.000000 4.565180 -2.238548 0.541029 -26.562776 -15.853172 -2.676172 -23.216978 29.037376 -7.094616 0.000000 0.000000 0.000000 -7.079465 5.970911 1.583259 38.248459 16.259206 -2.446890 6.572294 -26.627105 -2.068809 0.000000 0.000000 0.000000 
-0.011139 1.124350 0.009863 0.900131 -3.606953 -6.219144 2.431328 0.442186 5.385428 -0.404561 1.010847 -25.196476 26.151601 24.131165 107.746392 0.000000 0.000000 0.000000 -1.315739 0.015973 0.066067 -1.427303 -0.747318 -20.416007 -38.152814 -23.373304 116.887621 0.000000 0.000000 0.000000 -3.774778 -0.089229 8.652808 8.094209 1.324420 -48.584472 -2.292359 2.653109 51.915131 1.657737 3.402870 -79.467119 0.000000 0.000000 0.000000 7.480761 -0.758254 -0.146533 -20.288257 -10.017027 -3.129119 -20.352428 29.399995 -6.633957 0.000000 0.000000 0.000000 -13.274363 6.001743 0.924771 31.776691 13.495768 -3.063216 4.679600 -25.593391 -1.572931 0.000000 0.000000 0.000000 
-0.021244 1.095338 0.023799 1.592954 -3.580186 -6.918843 3.146909 0.746414 9.742196 -0.743662 1.209561 -30.431840 27.924075 24.195026 109.542572 0.000000 0.000000 0.000000 -3.501958 -0.265117 4.930617 1.438388 -0.564269 -26.026123 -47.030932 -24.715916 117.352567 0.000000 0.000000 0.000000 -3.850906 -0.095020 6.775058 7.134327 1.013330 -45.585847 -2.962236 1.792497 51.605886 0.974308 3.541994 -79.351470 0.000000 0.000000 0.000000 9.194849 2.285176 -1.239853 -11.180161 -4.685672 -2.216418 -16.207792 23.848800 -4.593613 0.000000 0.000000 0.000000 -17.366388 4.966644 0.488050 23.479367 10.834261 -2.927044 -1.441678 -18.077015 -0.139834 0.000000 0.000000 0.000000 
-0.029992 1.086437 0.033030 1.304183 -4.327052 -8.612930 5.095246 0.865133 13.063157 -1.258835 1.340327 -34.029786 28.546179 24.490633 109.065979 0.000000 0.000000 0.000000 -3.826385 -0.452140 8.617296 3.064206 -0.268350 -28.467233 -54.809307 -25.625490 117.744582 0.000000 0.000000 0.000000 -3.324389 -0.136793 6.751349 4.328439 1.145734 -44.882803 0.062388 0.916672 52.355601 -0.052055 3.686859 -79.685741 0.000000 0.000000 0.000000 13.599847 1.310676 -1.396604 -3.981869 0.159477 -0.836307 -10.402466 25.192601 -3.489008 0.000000 0.000000 0.000000 -20.656981 2.560725 -0.030531 14.595455 7.371021 -2.242953 -6.417606 -18.161017 0.617040 0.000000 0.000000 0.000000 
-0.037227 1.117918 0.031297 0.799956 -6.352636 -7.814051 5.997863 0.807191 12.275479 0.453732 1.655462 -31.436331 14.401163 22.855381 103.782157 0.000000 0.000000 0.000000 -5.772915 -0.143451 6.660330 5.780146 0.156735 -24.666323 -43.207808 -23.078084 117.394108 0.000000 0.000000 0.000000 -3.860732 -0.092047 6.267552 7.943240 0.930215 -43.586959 -1.650994 2.995487 49.492215 0.200097 3.493481 -75.071651 0.000000 0.000000 0.000000 21.564609 7.736000 -2.838686 -0.040344 0.462271 0.010701 -0.323305 24.765806 -1.025026 0.000000 0.000000 0.000000 -27.019819 0.549457 -0.494197 10.339139 5.632254 -1.609431 -13.273363 -18.510367 1.819302 0.000000 0.000000 0.000000 
-0.042795 1.172081 0.021866 1.740021 -4.606407 -7.743074 6.554582 0.480906 7.796484 -0.518362 1.026776 -24.869200 7.745846 21.056192 102.729387 0.000000 0.000000 0.000000 -8.012359 0.090530 1.324188 -0.310080 -0.477981 -14.833193 -8.631301 -18.142144 114.201752 0.000000 0.000000 0.000000 -4.836573 -0.060406 6.627454 5.772705 0.741433 -41.487780 1.032844 0.267998 46.375760 -5.864736 4.311609 -71.532296 0.000000 0.000000 0.000000 25.497699 4.017404 -2.287951 4.643104 7.059786 1.540128 7.728489 24.394661 0.862683 0.000000 0.000000 0.000000 -38.354590 -1.998391 -0.405939 10.152922 2.007451 -1.529938 -15.475559 -17.001539 2.009668 0.000000 0.000000 0.000000 
-0.046854 1.219314 0.014957 1.378230 -4.352581 -8.085800 7.205027 0.350263 5.290285 0.231685 0.680874 -17.100418 -2.022401 17.522009 92.724684 0.000000 0.000000 0.000000 -7.614554 0.171869 -2.298083 -3.008380 0.038051 -4.167971 -0.753387 -16.493362 99.655571 0.000000 0.000000 0.000000 -3.154181 -0.137877 7.010544 3.953820 0.846903 -41.182118 3.512158 2.144547 45.914856 -3.425455 3.730813 -68.152029 0.000000 0.000000 0.000000 30.315222 1.784581 -1.709232 6.981828 8.299593 2.227614 8.723755 21.042954 0.827011 0.000000 0.000000 0.000000 -43.910047 -5.066554 -1.349885 4.493663 -1.391519 -0.651956 -11.305804 -15.589508 1.362475 0.000000 0.000000 0.000000 
-0.050024 1.250733 0.013206 1.368286 -3.291126 -7.677826 8.147860 0.246333 3.699624 0.122015 0.549663 -14.702628 -3.175804 16.197040 87.665871 0.000000 0.000000 0.000000 -9.211623 0.146281 -1.950735 -1.786574 -0.036947 -4.079099 7.574319 -13.907280 98.168003 0.000000 0.000000 0.000000 -3.718348 -0.111629 6.447821 3.305170 0.625813 -37.938269 3.650331 -0.291313 42.932756 -4.228221 3.813971 -61.606680 0.000000 0.000000 0.000000 29.992006 2.970455 -2.088656 13.730277 10.839737 4.389929 10.752710 19.539293 1.147878 0.000000 0.000000 0.000000 -46.017985 -3.944744 -0.527477 -2.095266 -7.315600 0.807851 -10.614994 -11.111828 0.882245 0.000000 0.000000 0.000000 
-0.053192 1.259405 0.014009 1.136243 -4.190481 -6.768024 10.188499 0.230625 3.582980 -0.671357 0.627171 -16.523429 -1.714466 17.157164 89.921437 0.000000 0.000000 0.000000 -9.075282 0.194947 -2.225914 -4.004409 -0.242345 -9.240768 14.212175 -11.723685 100.157338 0.000000 0.000000 0.000000 -5.093243 -0.039536 6.136735 5.182079 0.629303 -40.147585 4.772467 0.304579 45.760847 -11.442768 5.240588 -69.631401 0.000000 0.000000 0.000000 31.853437 4.369947 -2.536370 17.927141 12.985526 6.055781 15.513928 19.755011 1.924510 0.000000 0.000000 0.000000 -47.570641 -3.425899 -1.097104 -6.196605 -12.649946 2.172644 -18.979357 -13.857174 2.114478 0.000000 0.000000 0.000000 
-0.055973 1.250715 0.015755 1.475545 -3.106372 -6.594670 8.456034 0.153999 0.807290 1.754310 0.494875 -13.488156 -2.516261 17.063390 92.236422 0.000000 0.000000 0.000000 -9.147071 0.154806 -1.597581 -4.395137 -0.413222 -11.821305 10.149290 -13.536883 101.399978 0.000000 0.000000 0.000000 -4.581934 -0.059072 7.438883 4.385495 0.832216 -42.105541 5.352020 0.651445 48.578168 -10.277098 4.832739 -72.585964 0.000000 0.000000 0.000000 28.136559 4.540505 -2.369556 26.339503 18.714837 9.954386 19.945372 16.816216 1.973744 0.000000 0.000000 0.000000 -47.766582 -7.171514 -1.794238 -15.971522 -22.383204 6.420442 -21.507539 -6.631335 1.340845 0.000000 0.000000 0.000000 
-0.058772 1.224434 0.017232 0.541447 -2.999345 -6.204513 9.050361 0.124270 -0.702595 2.947560 0.390619 -11.914719 -3.682502 16.453860 90.846428 0.000000 0.000000 0.000000 -9.015559 0.166318 -2.032939 -3.796136 -0.521731 -13.469909 11.053336 -13.800073 104.759364 0.000000 0.000000 0.000000 -5.120870 -0.015973 8.602097 5.865224 0.830327 -43.540515 4.349069 -0.618057 51.730709 -9.599495 4.567190 -77.391466 0.000000 0.000000 0.000000 28.402276 8.162747 -3.727706 34.374806 23.995094 14.866449 26.304002 14.987761 2.213203 0.000000 0.000000 0.000000 -45.547962 -7.263863 -2.171832 -25.058573 -30.579430 11.271232 -27.963606 -6.202763 1.263914 0.000000 0.000000 0.000000 
-0.061861 1.177801 0.023993 0.172746 -2.301120 -5.054116 7.350144 0.049545 -0.544601 5.348610 1.001305 -19.293014 -4.633557 16.528061 93.974732 0.000000 0.000000 0.000000 -9.408874 0.151092 -0.305714 -4.083328 -1.147309 -22.851958 19.564274 -12.780993 109.676083 0.000000 0.000000 0.000000 -5.957152 0.048865 8.171365 5.730862 0.715508 -42.655213 4.791662 -2.286376 52.464490 -14.453690 4.970944 -81.167937 0.000000 0.000000 0.000000 28.063465 14.430729 -4.974176 42.404461 24.599331 19.017291 30.180753 16.521551 2.580893 0.000000 0.000000 0.000000 -46.531884 -11.393691 -1.542727 -33.048918 -34.462717 15.409061 -30.637926 -6.814407 1.234986 0.000000 0.000000 0.000000 
-0.065005 1.121975 0.034340 -0.984560 0.856634 -4.006281 7.514166 -0.008636 0.554001 5.555313 1.596023 -27.888539 3.202758 18.624137 103.583815 0.000000 0.000000 0.000000 -5.053369 -0.041258 1.519372 -10.769795 -2.542258 -27.334388 24.195762 -14.383015 114.306032 0.000000 0.000000 0.000000 -5.250858 -0.003990 9.365828 7.007101 0.914236 -49.014900 0.855111 -5.163890 60.220530 -13.104768 4.563591 -91.304439 0.000000 0.000000 0.000000 24.264418 16.529043 -6.779419 50.390936 26.638177 23.646280 32.024030 23.303941 3.399577 0.000000 0.000000 0.000000 -41.884534 -14.360996 -3.115721 -41.918989 -38.351945 20.509531 -31.836334 -9.383705 1.297883 0.000000 0.000000 0.000000 
-0.067266 1.082576 0.041379 -1.521949 0.637500 -1.366854 9.125459 -0.058628 3.308934 4.241465 1.991437 -35.829636 9.475995 20.055597 106.129478 0.000000 0.000000 0.000000 -3.365180 -0.183111 3.373203 -11.776808 -3.837201 -34.874610 12.884252 -18.535351 124.968508 0.000000 0.000000 0.000000 -4.488501 -0.005962 7.352422 5.029894 1.099819 -50.734301 2.660428 -5.952805 61.827513 -12.831805 4.274325 -95.257199 0.000000 0.000000 0.000000 23.992806 17.001139 -7.323873 51.923536 25.184680 24.038110 33.199958 27.526239 4.035508 0.000000 0.000000 0.000000 -39.003761 -13.061282 -3.416090 -46.674892 -40.384681 23.257530 -31.838775 -10.667024 1.437163 0.000000 0.000000 0.000000 
-0.068638 1.076784 0.043976 -1.136172 -0.693715 0.047643 8.772076 -0.026131 4.311306 4.850164 2.735842 -41.035617 11.429492 20.781039 111.812710 0.000000 0.000000 0.000000 -4.129108 -0.058134 2.523024 -10.071757 -3.798565 -38.309655 7.304801 -19.154423 130.468985 0.000000 0.000000 0.000000 -3.956727 -0.004770 6.431399 3.682618 1.434814 -53.656251 3.270110 -6.244091 64.047395 -15.363024 4.411175 -94.815338 0.000000 0.000000 0.000000 25.572405 16.930908 -7.548800 47.730290 21.749409 21.022037 33.933753 29.284336 4.849807 0.000000 0.000000 0.000000 -42.150593 -12.812859 -3.351024 -41.674280 -36.544059 19.464403 -30.819783 -11.559547 1.584097 0.000000 0.000000 0.000000 
-0.070056 1.103099 0.044190 -0.951060 -2.835256 0.404313 8.600358 0.010287 3.012790 5.336040 2.892543 -38.233937 3.979741 20.101980 106.363328 0.000000 0.000000 0.000000 -5.217723 0.147494 0.253304 -6.305787 -2.366482 -35.038998 -0.286962 -18.349209 127.243330 0.000000 0.000000 0.000000 -3.969029 0.017525 5.141276 3.917623 1.552339 -51.354026 5.615639 -4.114903 61.164307 -17.165210 4.299692 -91.803354 0.000000 0.000000 0.000000 24.338170 14.576168 -6.366390 43.044816 21.185540 18.417163 30.319672 26.111799 3.952218 0.000000 0.000000 0.000000 -43.651578 -10.650169 -2.977609 -35.170704 -33.267565 15.855836 -30.111066 -10.255695 1.617391 0.000000 0.000000 0.000000 
-0.071398 1.143965 0.041241 -1.163622 -3.539367 -0.569112 7.763595 -0.014833 -0.340297 8.223794 2.387763 -28.794137 -8.764264 16.551025 98.546602 0.000000 0.000000 0.000000 -6.479419 0.354071 -3.823168 -3.675858 -1.129604 -23.550712 1.427465 -17.180128 116.194449 0.000000 0.000000 0.000000 -3.464442 -0.013353 3.908797 5.580725 1.313246 -47.956335 3.824755 -2.242797 58.720331 -11.476168 4.501049 -86.458874 0.000000 0.000000 0.000000 26.666156 15.416010 -5.876501 35.050840 17.008919 13.702436 21.335501 19.234184 2.184488 0.000000 0.000000 0.000000 -46.099065 -9.886998 -2.459525 -24.672732 -28.099037 10.481866 -22.422395 -8.078777 1.216479 0.000000 0.000000 0.000000 
-0.073537 1.186880 0.035398 -1.795362 -3.579095 -3.596174 9.661347 0.090512 0.379369 4.304365 1.316730 -23.378735 -4.347954 17.506430 98.164304 0.000000 0.000000 0.000000 -4.540283 0.356236 -4.451409 -3.715077 -0.672953 -15.839266 3.172005 -16.339800 109.912104 0.000000 0.000000 0.000000 -3.460117 -0.086443 8.408636 6.323258 1.124493 -46.425190 6.205856 0.184354 53.842693 -15.140847 4.382182 -84.159041 0.000000 0.000000 0.000000 30.621596 12.533112 -3.796385 25.801463 10.679164 7.985434 11.990590 22.619355 1.186910 0.000000 0.000000 0.000000 -49.705972 -10.693100 -2.220399 -18.035922 -21.000936 6.970526 -13.774553 -11.820284 1.259051 0.000000 0.000000 0.000000 
-0.076059 1.223346 0.029592 -0.622061 -4.767515 -4.949366 7.329380 0.136076 0.643245 5.166292 1.096814 -19.814157 -1.577727 18.087759 95.040737 0.000000 0.000000 0.000000 -4.173295 0.311549 -3.739750 -2.794450 -0.439258 -12.369433 -2.748777 -17.192067 107.386665 0.000000 0.000000 0.000000 -4.414764 -0.021997 9.329025 6.197504 1.090507 -45.002517 4.807752 1.673259 51.875125 -6.278518 3.907903 -86.390982 0.000000 0.000000 0.000000 33.152995 11.624278 -3.334709 20.310085 6.972757 5.521033 5.293101 22.347218 0.018257 0.000000 0.000000 0.000000 -49.120892 -7.426881 -2.004960 -8.837773 -18.461176 3.595220 -8.838493 -14.820619 0.859053 0.000000 0.000000 0.000000 
-0.078781 1.243543 0.024050 -0.444921 -4.684832 -5.578912 6.046231 0.110741 0.223279 5.136360 0.997213 -18.797586 3.141486 19.632357 97.416120 0.000000 0.000000 0.000000 -3.696537 0.281177 -3.281984 -3.261339 -0.411542 -11.837285 3.569660 -15.630378 107.856809 0.000000 0.000000 0.000000 -4.775783 0.020933 11.528058 4.355499 1.456368 -47.904059 7.004618 0.151251 51.724849 -15.038169 3.862229 -90.983015 0.000000 0.000000 0.000000 31.459342 4.680692 -2.994259 18.490977 7.598953 5.225815 4.365055 25.385262 -0.185098 0.000000 0.000000 0.000000 -50.906633 -5.069577 -1.920091 -3.577172 -15.709961 1.754549 -6.975861 -18.106691 0.651731 0.000000 0.000000 0.000000 
-0.081410 1.247244 0.022381 0.645645 -5.530149 -6.408673 5.034674 0.189456 1.577991 4.696557 0.838041 -17.079012 -4.961794 17.471122 95.468683 0.000000 0.000000 0.000000 -4.550719 0.154554 -1.195607 -0.403007 -0.418944 -12.859542 -3.353704 -17.095690 102.058967 0.000000 0.000000 0.000000 -5.546095 0.047752 9.139772 4.665783 1.392136 -46.521877 7.298086 2.859515 54.176821 -11.018943 3.653862 -88.244146 0.000000 0.000000 0.000000 31.921920 3.377936 -2.515780 16.397360 7.921757 4.643250 3.806610 20.424980 -0.230143 0.000000 0.000000 0.000000 -49.794968 -6.581916 -2.876816 -0.737541 -13.214708 0.870690 -2.644052 -16.381908 -0.015318 0.000000 0.000000 0.000000 
-0.083845 1.248895 0.021718 0.076393 -4.147835 -6.322409 4.343314 0.111354 0.679081 5.985657 0.735762 -15.836343 -9.046107 15.812663 94.607940 0.000000 0.000000 0.000000 -5.513324 0.162852 -1.515050 0.854297 -0.425523 -12.888128 -2.854864 -17.338293 100.559842 0.000000 0.000000 0.000000 -5.838512 0.045319 8.696832 4.607088 1.097085 -44.626732 5.279059 0.897770 51.318173 -9.983772 4.095533 -85.866027 0.000000 0.000000 0.000000 31.165044 5.194288 -2.722055 14.253126 3.980460 3.418248 3.776813 17.883059 -0.095569 0.000000 0.000000 0.000000 -47.723640 -2.796289 -2.037050 2.338965 -14.038290 0.043426 -0.426390 -13.305530 -0.341819 0.000000 0.000000 0.000000 
-0.086523 1.255196 0.019269 -0.687075 -6.382584 -5.944138 5.759461 0.133076 0.152409 6.426522 0.678585 -14.975165 -12.238526 14.784736 92.234404 0.000000 0.000000 0.000000 -5.715592 0.202856 -1.570150 2.913574 -0.334604 -15.094606 -4.215323 -17.144125 104.061747 0.000000 0.000000 0.000000 -5.260621 0.039933 8.857335 5.311252 1.073503 -43.318553 6.015800 3.765231 48.728539 -12.742820 4.086952 -83.925172 0.000000 0.000000 0.000000 31.846095 3.678239 -1.894946 12.438172 3.109935 2.763296 3.643529 18.545176 -0.147341 0.000000 0.000000 0.000000 -47.030024 -1.961958 -2.047371 5.686402 -13.351954 -0.807500 -1.681561 -14.151215 -0.129072 0.000000 0.000000 0.000000 
-0.088950 1.261559 0.015161 -0.680219 -6.147865 -4.326112 7.447543 0.042182 -3.047454 5.216442 0.389420 -12.043932 -13.936173 13.727869 90.610802 0.000000 0.000000 0.000000 -5.926585 0.348145 -4.226088 1.937269 -0.376522 -13.251978 -5.488032 -17.726517 100.471346 0.000000 0.000000 0.000000 -4.794344 0.027718 8.618332 3.799800 1.151754 -43.170546 5.391510 2.426054 46.819636 -11.744144 4.497672 -79.903958 0.000000 0.000000 0.000000 31.123350 5.404721 -2.171419 10.424812 2.653289 2.288209 2.448088 16.747820 -0.251430 0.000000 0.000000 0.000000 -45.815791 -0.716349 -1.470966 8.549148 -11.352839 -1.513032 -2.865955 -15.189614 0.026728 0.000000 0.000000 0.000000 
-0.089906 1.262730 0.013346 -0.698172 -6.905660 -3.718606 7.690072 0.064499 -2.741414 6.058880 0.355157 -11.769581 -16.141678 12.231081 87.765802 0.000000 0.000000 0.000000 -6.267510 0.405026 -5.104130 1.594395 -0.361014 -12.042038 -3.963257 -17.227680 95.522079 0.000000 0.000000 0.000000 -4.325381 0.001332 7.993163 3.797981 1.079540 -42.080531 6.094048 4.847700 45.891331 -9.397657 4.225830 -77.178728 0.000000 0.000000 0.000000 31.110643 4.995453 -1.446817 7.790509 1.402825 1.556741 4.265693 16.530456 -0.005252 0.000000 0.000000 0.000000 -45.877766 -0.292851 -2.021797 10.280800 -13.205773 -1.951280 -3.524309 -12.842267 0.193882 0.000000 0.000000 0.000000 
-0.089021 1.257393 0.014115 -0.752531 -7.737293 -5.244829 7.630770 0.194638 0.099286 5.976766 0.568516 -13.882387 -17.214304 12.346649 88.877266 0.000000 0.000000 0.000000 -6.126574 0.348362 -4.199435 0.280091 -0.315840 -9.626251 -0.435779 -15.746014 94.744835 0.000000 0.000000 0.000000 -3.269758 -0.082870 9.458548 3.689575 1.080541 -41.392598 6.169597 7.818623 45.366497 -3.143899 3.435815 -74.988249 0.000000 0.000000 0.000000 31.919837 1.226860 -0.372871 6.578017 6.665144 1.856462 6.220098 16.898308 0.214168 0.000000 0.000000 0.000000 -44.256737 -3.180835 -2.458214 5.614684 -13.457906 -0.719218 -3.246808 -10.264965 0.159700 0.000000 0.000000 0.000000 
-0.087067 1.230867 0.017295 -1.551283 -4.801003 -4.896949 8.587143 0.149370 0.560439 6.288948 0.908867 -17.410865 -13.803294 13.842507 92.225772 0.000000 0.000000 0.000000 -7.110007 0.256733 -3.089449 -1.538074 -0.473076 -13.425369 -0.338089 -16.512196 102.666412 0.000000 0.000000 0.000000 -3.194637 -0.112106 8.738163 3.904912 1.106525 -43.746938 4.679308 3.341803 49.636403 -6.880553 3.707536 -84.352523 0.000000 0.000000 0.000000 28.926473 5.454552 -1.876530 10.049005 9.821923 3.230452 13.726678 18.951905 1.466622 0.000000 0.000000 0.000000 -45.227336 -1.586804 -2.454257 0.621503 -18.541367 0.727160 -5.596841 -10.865171 0.406567 0.000000 0.000000 0.000000 
-0.084856 1.173991 0.026153 -2.357628 -4.292179 -5.047331 9.416882 0.179742 3.054470 6.266037 1.558491 -23.841460 -8.594950 16.531651 98.020421 0.000000 0.000000 0.000000 -6.690891 0.103825 0.602902 -2.462869 -0.935784 -23.270098 -3.278644 -17.606360 112.669291 0.000000 0.000000 0.000000 -1.422638 -0.222410 8.037874 2.950895 1.156287 -44.157069 6.675005 4.618676 52.461398 -13.021897 3.110395 -88.184138 0.000000 0.000000 0.000000 29.368404 6.790114 -1.731845 13.286413 12.396174 4.464129 21.717040 21.426414 2.695534 0.000000 0.000000 0.000000 -45.696567 -1.866722 -3.636087 -9.098039 -25.483538 4.714992 -10.496538 -10.093781 0.995636 0.000000 0.000000 0.000000 
-0.083990 1.102880 0.036833 -3.090153 -1.264122 -5.245906 10.994383 0.043734 5.980153 4.103727 1.950287 -34.001564 4.367383 19.819174 113.264695 0.000000 0.000000 0.000000 -5.995148 -0.157016 4.640276 -4.148750 -1.678603 -29.438258 -8.218149 -19.642234 118.151550 0.000000 0.000000 0.000000 -0.550003 -0.348870 9.623588 2.309500 1.273002 -50.281646 6.823680 2.930015 58.793058 -13.910865 1.708427 -97.181306 0.000000 0.000000 0.000000 28.929177 7.959701 -2.490309 20.161746 16.823075 7.370358 25.464619 26.128650 3.518409 0.000000 0.000000 0.000000 -40.672691 -4.055611 -4.694196 -22.048054 -27.263079 10.261005 -17.425150 -12.528507 1.910293 0.000000 0.000000 0.000000 
-0.083686 1.060057 0.045870 -3.523071 0.725248 -4.746281 12.732078 -0.231974 9.204638 1.208604 1.508054 -42.723992 11.073973 19.970848 116.426288 0.000000 0.000000 0.000000 -6.795800 -0.266958 7.209407 -1.030018 -1.603829 -33.827877 -31.774256 -22.277192 126.448967 0.000000 0.000000 0.000000 -0.973053 -0.319940 9.215812 1.026988 1.111812 -51.848858 8.249330 -1.072645 61.204028 -17.458686 1.498435 -100.078335 0.000000 0.000000 0.000000 25.162855 7.834731 -3.483686 27.431197 20.198690 10.897689 28.460745 32.724870 4.762262 0.000000 0.000000 0.000000 -38.104664 -3.955724 -4.636709 -30.424218 -30.850905 14.387711 -19.969569 -11.831481 1.792674 0.000000 0.000000 0.000000 
-0.083214 1.074194 0.049075 -3.096297 0.204938 -3.791124 12.624398 -0.176174 7.057320 1.205345 1.508523 -39.878755 7.685482 19.832869 115.256898 0.000000 0.000000 0.000000 -7.685186 -0.081428 4.736323 -1.315844 -1.505574 -31.976766 -15.771078 -20.772208 126.740186 0.000000 0.000000 0.000000 -2.024601 -0.200743 7.778604 1.594475 1.147677 -50.775265 7.929955 -1.641285 58.608219 -18.851697 2.533626 -95.176608 0.000000 0.000000 0.000000 27.616882 5.663224 -3.079200 25.000832 22.310415 10.318685 31.822646 37.298560 7.044117 0.000000 0.000000 0.000000 -40.027575 -2.414067 -3.805925 -27.555992 -31.210739 12.873236 -20.930908 -12.457891 2.003679 0.000000 0.000000 0.000000 
-0.083016 1.126263 0.049280 -2.247851 -1.034867 -4.486453 10.912304 0.029175 4.608758 2.175189 1.336160 -29.476582 -5.742908 17.660757 106.790308 0.000000 0.000000 0.000000 -7.837207 0.078526 0.369550 -1.091355 -0.924869 -22.498541 -8.798239 -19.744171 117.491914 0.000000 0.000000 0.000000 -3.746618 -0.101669 8.283955 5.016437 1.178043 -49.487273 7.419134 1.065829 57.763811 -12.542623 2.977871 -91.058051 0.000000 0.000000 0.000000 30.676903 3.415179 -2.516944 18.432550 24.220280 8.132455 28.443932 38.097006 6.461504 0.000000 0.000000 0.000000 -43.165042 -2.891879 -4.243608 -20.634851 -29.089884 9.785839 -21.352199 -15.302653 2.711680 0.000000 0.000000 0.000000 
-0.083004 1.167945 0.050489 -2.123597 -2.480221 -6.002183 10.697916 0.138915 3.261930 2.131177 0.894283 -20.691612 -9.871238 15.835004 98.947733 0.000000 0.000000 0.000000 -6.621795 0.096389 -0.631225 0.124852 -0.569153 -16.272075 -9.007965 -19.427997 108.990200 0.000000 0.000000 0.000000 -3.142386 -0.153385 9.024228 4.605055 0.843648 -43.255768 7.713653 2.729653 51.551634 -4.432486 3.208691 -86.576993 0.000000 0.000000 0.000000 34.632135 1.650247 -1.784509 13.407541 21.600051 5.764466 19.489724 39.373601 4.185585 0.000000 0.000000 0.000000 -46.576967 -1.145851 -3.588456 -13.935946 -27.711714 6.794441 -14.316808 -17.926671 2.056507 0.000000 0.000000 0.000000 
-0.083242 1.182440 0.053968 -2.100391 -1.977436 -6.624183 10.337453 0.138085 1.116807 2.433193 0.629810 -16.158295 -7.492161 15.806479 96.046272 0.000000 0.000000 0.000000 -5.710727 0.042357 -0.000658 -0.956329 -0.592883 -15.610890 -5.375215 -18.744790 108.111082 0.000000 0.000000 0.000000 -4.503842 -0.079311 9.849161 6.043541 0.731269 -43.635947 7.457451 1.639425 51.643913 -5.935115 3.514394 -84.242317 0.000000 0.000000 0.000000 34.988905 1.643141 -1.990620 13.252552 20.304496 5.547302 14.579426 36.596417 2.519976 0.000000 0.000000 0.000000 -48.532591 -0.858186 -3.515369 -11.758248 -26.274769 5.681178 -11.110505 -20.204538 1.596139 0.000000 0.000000 0.000000 
-0.083753 1.166143 0.059099 -1.651310 -4.101706 -6.121124 10.106514 0.199613 1.698637 2.554349 0.803584 -18.149924 -3.665717 17.763399 98.358837 0.000000 0.000000 0.000000 -5.531771 0.076091 0.069295 0.578000 -0.614899 -22.378338 -10.219267 -18.917784 114.281810 0.000000 0.000000 0.000000 -5.032191 -0.017070 9.201001 6.774704 0.905638 -44.299708 8.059847 2.064959 53.602685 -10.418934 3.577196 -87.668982 0.000000 0.000000 0.000000 34.227742 4.104810 -2.567912 15.768702 19.232473 6.396612 13.476457 31.218529 1.938367 0.000000 0.000000 0.000000 -49.588492 0.854664 -3.840504 -11.511273 -27.573602 5.673132 -12.389429 -19.245203 1.752314 0.000000 0.000000 0.000000 
-0.085274 1.117111 0.067666 -2.280214 -2.837992 -5.720893 8.716516 0.209458 5.461130 4.304371 1.674578 -28.341432 8.315289 20.640748 104.971385 0.000000 0.000000 0.000000 -2.747971 -0.129563 2.209432 -2.489260 -1.338524 -30.280884 -16.563040 -19.878091 122.656413 0.000000 0.000000 0.000000 -3.889761 -0.099774 8.502129 7.194869 0.925019 -45.723942 6.686908 1.690064 56.387318 -7.846704 3.193153 -92.673571 0.000000 0.000000 0.000000 33.900814 4.738243 -2.764294 20.811657 18.201607 7.875581 16.294099 30.538684 2.392899 0.000000 0.000000 0.000000 -46.815646 -1.464486 -4.025385 -18.477947 -25.876821 8.167141 -12.008947 -17.446960 1.461365 0.000000 0.000000 0.000000 
-0.087831 1.051288 0.077132 -1.671400 -2.026014 -5.172349 8.670824 0.270395 10.649871 2.829359 2.390101 -42.106427 21.443236 22.329013 111.802083 0.000000 0.000000 0.000000 -1.496527 -0.499144 6.144171 -4.536174 -2.237096 -37.696159 -35.389032 -20.117831 132.074178 0.000000 0.000000 0.000000 -4.573145 -0.050564 9.023595 7.664089 1.222916 -49.358950 4.923928 0.271819 60.627197 -6.919375 3.330670 -97.262575 0.000000 0.000000 0.000000 32.833764 6.278205 -3.839595 27.361194 18.012187 10.274349 23.214666 28.944195 3.653734 0.000000 0.000000 0.000000 -45.496177 -0.368008 -4.496370 -24.202315 -29.635136 11.076026 -16.261289 -14.509840 1.727866 0.000000 0.000000 0.000000 
-0.091130 1.004220 0.083389 -1.962863 -0.952423 -4.327294 10.031133 0.088055 13.351151 2.371915 2.641511 -50.754484 27.210384 22.263887 115.633283 0.000000 0.000000 0.000000 0.042213 -0.892242 8.977997 -5.025152 -3.016042 -43.947988 -44.836503 -20.364876 134.082673 0.000000 0.000000 0.000000 -4.082153 -0.077298 8.525680 5.270595 1.231199 -50.401680 6.131293 -2.396683 61.628861 -7.754368 3.498934 -99.782356 0.000000 0.000000 0.000000 32.079100 6.545996 -4.455602 31.097033 17.170759 11.539896 29.339222 29.392915 4.964165 0.000000 0.000000 0.000000 -44.505350 -0.878126 -4.296233 -28.806563 -31.890369 13.332519 -17.861311 -12.412710 1.563223 0.000000 0.000000 0.000000 
-0.094501 1.012793 0.082129 -1.051394 -1.426682 -4.254428 9.766731 0.138380 11.741657 2.827047 2.771757 -48.574927 24.825218 22.087860 116.394587 0.000000 0.000000 0.000000 -1.658728 -0.620507 7.715335 -2.811884 -2.140094 -41.562991 -45.828509 -19.563031 135.700385 0.000000 0.000000 0.000000 -5.074883 -0.006761 8.050803 4.872223 1.359509 -51.016092 6.108952 -3.701855 61.295528 -10.453222 3.907398 -96.290903 0.000000 0.000000 0.000000 32.874535 5.646627 -4.564253 31.126709 15.686896 11.059098 28.561546 31.159053 5.451987 0.000000 0.000000 0.000000 -46.190827 -2.004695 -3.520547 -26.299069 -29.118320 11.290473 -16.473269 -12.329940 1.368752 0.000000 0.000000 0.000000 
-0.097183 1.060765 0.077153 -0.250807 -2.572110 -4.189645 9.838747 0.149400 7.870965 2.781731 2.370116 -40.347348 15.778098 21.750343 113.406489 0.000000 0.000000 0.000000 -2.192814 -0.232719 3.478814 -2.233564 -1.433759 -33.234051 -32.637344 -19.569175 132.440376 0.000000 0.000000 0.000000 -5.723984 0.046825 7.790813 5.959353 1.425404 -50.221921 4.822771 -2.770695 60.228004 -9.751251 4.156479 -94.010430 0.000000 0.000000 0.000000 33.126504 3.413072 -4.339861 28.370616 15.369865 10.011297 23.256126 32.453101 4.562269 0.000000 0.000000 0.000000 -47.054319 -1.590439 -3.166605 -19.345431 -24.554665 7.742636 -13.454750 -16.489326 1.362121 0.000000 0.000000 0.000000 
-0.097816 1.116518 0.075642 0.290218 -3.592596 -6.179065 7.585057 0.295254 5.681965 5.035461 1.851911 -28.362804 2.565398 20.024733 106.441640 0.000000 0.000000 0.000000 -2.645297 -0.127316 2.265220 -1.881962 -0.968619 -25.264226 -16.943399 -19.493575 121.770787 0.000000 0.000000 0.000000 -4.456991 -0.058824 7.507494 4.916300 1.191687 -46.245376 4.078701 -1.141511 56.936576 -3.897371 4.194953 -88.231647 0.000000 0.000000 0.000000 36.844832 0.928099 -3.815941 20.908487 15.198465 7.373344 11.490801 28.439777 1.606574 0.000000 0.000000 0.000000 -49.087945 -1.781204 -2.565597 -10.617536 -18.451934 4.002554 -5.979066 -18.701761 0.324985 0.000000 0.000000 0.000000 
-0.097816 1.152018 0.077278 1.134697 -7.117323 -7.432378 7.122544 0.491121 6.792845 5.721445 1.510153 -22.786380 -4.015203 18.871651 99.921111 0.000000 0.000000 0.000000 -4.702435 -0.022202 2.262631 0.566852 -0.438510 -20.127616 -15.283343 -18.689843 113.442323 0.000000 0.000000 0.000000 -4.916342 -0.034709 7.353485 6.834001 1.087208 -43.637059 3.210761 1.707978 52.356441 -3.524219 4.135184 -83.543655 0.000000 0.000000 0.000000 36.241730 -2.357836 -3.042632 15.027445 13.174664 5.060700 4.759466 24.131182 0.096086 0.000000 0.000000 0.000000 -51.428910 0.518176 -2.021108 -0.045196 -11.061339 0.515295 -0.903310 -18.719312 -0.529459 0.000000 0.000000 0.000000 
-0.097692 1.158491 0.080475 1.637189 -10.188673 -8.426124 5.871711 0.635632 6.978979 5.211783 1.306432 -20.531879 -1.272658 20.609490 101.171228 0.000000 0.000000 0.000000 -3.863681 -0.067526 3.117861 2.727699 -0.140522 -18.962196 -23.300940 -19.736772 110.544575 0.000000 0.000000 0.000000 -4.442959 -0.057607 7.313142 7.796287 0.878147 -41.449803 2.027048 4.635675 48.666585 -2.323832 4.063343 -82.494132 0.000000 0.000000 0.000000 34.894998 -3.294071 -2.414311 10.044457 9.115193 3.061938 -3.165882 23.978606 -1.635203 0.000000 0.000000 0.000000 -49.635494 3.859907 -1.726321 6.299375 -3.908611 -0.927420 3.876428 -19.528673 -1.458483 0.000000 0.000000 0.000000 
-0.098076 1.132933 0.084722 1.730201 -10.332178 -9.743475 4.062264 0.834972 8.813595 2.846594 1.690562 -25.537930 7.972833 22.643603 102.538795 0.000000 0.000000 0.000000 -2.605135 -0.256081 5.254164 3.481870 0.056387 -22.500737 -28.429012 -20.171703 113.141541 0.000000 0.000000 0.000000 -4.698049 0.006807 10.697100 7.649491 1.358490 -44.448239 1.056916 3.161906 48.739030 -1.114680 4.449405 -84.811948 0.000000 0.000000 0.000000 30.291678 -4.773142 -2.241709 7.749558 6.822504 2.236146 -10.735503 24.862082 -3.436198 0.000000 0.000000 0.000000 -46.080750 5.602517 -0.992442 7.614662 2.180380 -1.112764 9.977116 -20.086897 -2.864502 0.000000 0.000000 0.000000 
-0.098065 1.082639 0.093356 2.569840 -10.880648 -10.810873 2.661676 1.232881 12.015265 0.920252 2.162655 -31.810407 15.064159 24.146504 102.717015 0.000000 0.000000 0.000000 -2.655266 -0.379476 8.133540 5.699422 0.636748 -26.512010 -39.858441 -22.162303 113.401927 0.000000 0.000000 0.000000 -5.797092 0.092902 10.937765 8.400926 1.050849 -42.630397 1.645527 5.813654 48.402304 -2.529630 4.057664 -85.398564 0.000000 0.000000 0.000000 22.589969 -8.335652 -0.382326 8.168022 5.568388 2.214701 -16.283337 24.707010 -5.012437 0.000000 0.000000 0.000000 -38.422179 9.665134 -1.215056 6.883643 0.665377 -1.066940 11.210174 -17.674789 -2.700161 0.000000 0.000000 0.000000 
-0.097663 1.030454 0.102733 1.365837 -8.606943 -11.887122 4.795355 1.340510 15.783542 -2.334885 1.701754 -36.222539 25.929979 25.215755 108.355136 0.000000 0.000000 0.000000 -0.485429 -0.779439 10.558697 5.832479 0.664562 -30.276880 -59.950825 -24.103541 119.470646 0.000000 0.000000 0.000000 -5.457901 0.065241 12.932382 8.701418 0.993490 -43.704823 -0.173383 4.871995 49.270400 -1.688877 4.084968 -89.739119 0.000000 0.000000 0.000000 16.583171 -9.283899 0.599856 8.136737 4.083069 2.089599 -19.368256 22.643400 -5.459070 0.000000 0.000000 0.000000 -29.361011 13.453335 -0.183595 5.745810 0.534360 -0.951678 11.674566 -16.505583 -2.639791 0.000000 0.000000 0.000000 
-0.097022 0.996306 0.107716 0.913959 -6.511532 -11.776228 6.347267 1.160501 17.155846 -5.399054 0.990831 -42.699226 42.340096 25.367798 116.162275 0.000000 0.000000 0.000000 -0.990128 -0.897556 12.150935 7.624099 1.130476 -35.519380 -77.966742 -24.519249 124.897458 0.000000 0.000000 0.000000 -6.068315 0.083898 13.296756 8.852675 1.233553 -46.477556 -0.358747 3.496482 51.801831 -4.236979 4.083829 -90.329691 0.000000 0.000000 0.000000 13.291104 -10.767181 1.367167 5.022896 0.745456 1.069923 -20.089891 25.008204 -6.226576 0.000000 0.000000 0.000000 -25.994334 15.479912 0.384261 9.256489 1.161667 -1.558987 10.420576 -17.449471 -2.506723 0.000000 0.000000 0.000000 
-0.096624 0.984862 0.107606 1.112187 -4.712710 -11.258164 7.019492 0.922725 16.339234 -8.212538 -0.041246 -44.674306 49.817349 24.595435 119.295422 0.000000 0.000000 0.000000 -0.611396 -0.875141 10.610095 5.770177 0.483479 -35.525586 -85.196171 -22.423720 129.800545 0.000000 0.000000 0.000000 -6.820326 0.167739 14.341987 7.866514 1.350416 -48.078627 -0.858887 0.932965 52.858160 -4.898405 4.457706 -92.888613 0.000000 0.000000 0.000000 8.271229 -11.070364 2.135412 4.775616 -1.096608 0.859976 -19.293328 25.729169 -6.176615 0.000000 0.000000 0.000000 -23.034169 17.514336 1.409685 11.411365 1.688976 -1.937866 11.697090 -18.152994 -2.884229 0.000000 0.000000 0.000000 
-0.096438 0.986215 0.104292 1.162353 -4.406083 -10.458064 7.437498 0.754710 14.314015 -8.836320 -0.250075 -44.400873 55.018259 23.926351 121.994195 0.000000 0.000000 0.000000 -0.993484 -0.730647 9.083092 6.016676 0.482758 -35.129445 -82.415966 -20.333191 132.497958 0.000000 0.000000 0.000000 -6.786591 0.194369 14.809518 7.617875 1.497532 -49.325081 -0.833969 -0.464121 52.693913 -7.030122 4.718589 -92.731808 0.000000 0.000000 0.000000 7.773161 -11.834565 2.355736 1.042922 -3.150391 -0.014168 -18.862583 26.975896 -6.151833 0.000000 0.000000 0.000000 -23.870950 17.678331 1.609869 15.355767 4.269994 -2.394476 12.177430 -19.193859 -3.130377 0.000000 0.000000 0.000000 
-0.096414 0.993846 0.101583 0.683864 -5.047613 -9.493379 7.135922 0.676207 11.788020 -7.316812 0.299183 -41.533721 53.419610 23.542883 123.584297 0.000000 0.000000 0.000000 -0.405474 -0.537273 6.265730 5.793977 0.319460 -31.066755 -78.023829 -20.621708 131.289391 0.000000 0.000000 0.000000 -6.466555 0.195252 14.742123 8.330412 1.523724 -49.122068 -0.598823 0.162179 51.761178 -6.649427 4.645675 -92.301341 0.000000 0.000000 0.000000 6.107751 -11.626184 2.702975 0.691211 -4.519762 -0.172939 -17.701754 26.894573 -5.811276 0.000000 0.000000 0.000000 -22.967028 17.247592 1.747013 17.571538 5.436578 -2.596744 11.391682 -19.682611 -2.988436 0.000000 0.000000 0.000000 
-0.096890 1.006796 0.099718 0.412938 -5.337874 -9.547498 7.153850 0.592203 9.676145 -5.725901 0.681113 -37.559129 52.111129 23.285841 124.686585 0.000000 0.000000 0.000000 0.612197 -0.433810 4.532635 4.413398 -0.004252 -27.857158 -71.612413 -20.023495 131.388943 0.000000 0.000000 0.000000 -5.870080 0.168548 15.827772 8.355650 1.459529 -48.557433 -0.343653 0.409035 50.586543 -6.773460 4.609661 -92.587109 0.000000 0.000000 0.000000 6.181002 -10.868445 2.519051 0.012992 -5.572200 -0.351018 -15.807903 27.279177 -5.337126 0.000000 0.000000 0.000000 -22.981063 16.248320 1.663518 19.715220 6.156342 -2.803330 9.599784 -20.373275 -2.663488 0.000000 0.000000 0.000000 
-0.097888 1.016531 0.098842 0.403719 -5.356542 -8.593774 6.471090 0.456684 6.450522 -4.327974 0.897102 -34.065501 50.394955 22.781475 126.414190 0.000000 0.000000 0.000000 1.221134 -0.265019 2.550010 2.912962 -0.257500 -26.140310 -62.116839 -18.792203 132.839819 0.000000 0.000000 0.000000 -6.129975 0.211006 15.549075 8.364856 1.509820 -48.789508 -0.447862 0.211854 50.536393 -7.963162 4.632646 -92.787120 0.000000 0.000000 0.000000 7.056803 -9.763686 2.079892 -0.413221 -5.851799 -0.435845 -14.598509 29.129298 -5.314243 0.000000 0.000000 0.000000 -23.768853 14.611955 1.520707 22.187527 6.435398 -3.068119 7.714769 -20.721592 -2.290152 0.000000 0.000000 0.000000 
-0.099210 1.023495 0.098800 1.119943 -7.668576 -7.121399 6.648923 0.463324 5.866278 -4.227587 1.191303 -33.932765 47.538697 23.571804 126.873698 0.000000 0.000000 0.000000 0.704599 0.075507 -0.773807 3.289819 -0.113853 -22.724152 -61.291793 -18.813322 130.322432 0.000000 0.000000 0.000000 -8.477668 0.548524 14.255287 9.782254 1.938424 -49.803692 1.379124 1.793655 51.910370 -8.744174 4.421366 -92.874020 0.000000 0.000000 0.000000 6.317460 -9.676641 2.193797 0.521955 -3.916984 -0.172556 -10.906046 29.834304 -4.443309 0.000000 0.000000 0.000000 -23.832976 12.030711 1.052121 22.969576 5.024024 -3.480715 4.583405 -21.183958 -1.634596 0.000000 0.000000 0.000000 
-0.100529 1.023749 0.099175 1.389002 -5.797644 -5.592639 7.988611 0.217540 1.698766 -5.185711 0.742220 -29.789293 47.923273 23.251171 125.582021 0.000000 0.000000 0.000000 1.073928 0.233467 -2.332431 1.590586 -0.411041 -22.495227 -56.691870 -19.233066 130.937950 0.000000 0.000000 0.000000 -8.220646 0.476317 13.529930 9.776220 1.383232 -47.525520 -1.235841 0.272888 49.156614 -7.681388 4.728131 -92.841386 0.000000 0.000000 0.000000 7.319475 -4.879924 0.737041 2.409541 -1.720740 0.325842 -9.165750 27.867540 -3.630715 0.000000 0.000000 0.000000 -26.247536 12.152823 1.160522 25.128933 2.578029 -4.008937 1.622694 -21.760186 -1.046670 0.000000 0.000000 0.000000 
-0.101061 1.022412 0.099932 1.863298 -6.510347 -5.580925 8.110908 0.244461 1.858970 -5.007926 0.833793 -29.783574 48.341196 24.301227 122.839016 0.000000 0.000000 0.000000 0.551872 0.222776 -2.262134 2.107156 -0.313127 -22.475781 -53.156209 -19.094796 130.011807 0.000000 0.000000 0.000000 -8.872203 0.651026 14.833903 7.485775 1.833745 -49.840336 1.973149 0.783757 51.039897 -8.892998 4.383006 -93.853937 0.000000 0.000000 0.000000 9.659537 -6.349411 0.813172 4.319657 2.619604 1.113194 -7.448996 29.378611 -3.473271 0.000000 0.000000 0.000000 -24.987675 7.727584 0.543681 22.029154 -1.934992 -4.260778 -2.877040 -21.858572 -0.100375 0.000000 0.000000 0.000000 
-0.099670 1.019581 0.101212 0.681426 -7.382033 -4.221419 8.830889 0.199115 -0.108875 -2.052896 1.206540 -28.270637 41.661053 24.417569 122.582859 0.000000 0.000000 0.000000 1.222895 0.375532 -3.716922 3.319736 -0.156095 -21.977810 -56.307698 -19.524396 128.886939 0.000000 0.000000 0.000000 -8.398893 0.607236 14.149883 8.867004 1.843540 -49.316306 1.683792 1.400261 51.478769 -7.437162 4.439313 -93.653111 0.000000 0.000000 0.000000 12.567756 -2.627755 -0.431595 6.041043 7.007742 1.949086 -2.094892 29.370196 -2.013524 0.000000 0.000000 0.000000 -26.689068 5.100879 0.104179 18.580750 -5.613693 -3.916280 -7.396356 -22.723646 0.825331 0.000000 0.000000 0.000000 
-0.096227 1.023379 0.102975 -0.038890 -6.562928 -2.859891 9.104841 0.123212 -1.513061 -1.820331 1.132944 -27.426635 36.783428 24.608524 118.766391 0.000000 0.000000 0.000000 1.385799 0.635066 -6.006600 2.118856 -0.344389 -20.605618 -47.734581 -19.226888 129.348590 0.000000 0.000000 0.000000 -8.045790 0.530231 13.231175 7.367999 1.780516 -49.430480 2.962190 0.215402 52.556474 -6.981316 4.465135 -95.003201 0.000000 0.000000 0.000000 14.448829 0.581188 -1.484234 9.126616 9.824847 3.145909 6.760943 29.226227 0.309817 0.000000 0.000000 0.000000 -28.061389 1.561343 -0.388678 13.732630 -11.299945 -3.205703 -12.464134 -24.300422 1.884899 0.000000 0.000000 0.000000 
-0.090840 1.034949 0.105637 -0.295363 -6.586909 -2.193787 8.676067 0.075243 -2.451050 -1.633310 1.146013 -27.195632 35.221950 24.655432 117.929445 0.000000 0.000000 0.000000 0.394588 0.757100 -7.398738 2.335344 -0.331600 -20.128944 -40.988496 -19.164201 128.396485 0.000000 0.000000 0.000000 -7.753158 0.462999 12.162913 7.456727 1.864174 -50.039914 3.382550 0.789514 53.954165 -7.618130 4.190140 -93.653170 0.000000 0.000000 0.000000 17.429742 2.286502 -2.109175 11.915945 13.671957 4.498881 14.324353 29.969197 2.172499 0.000000 0.000000 0.000000 -31.159175 -1.080123 -1.179832 7.865121 -16.933249 -1.752580 -14.795981 -26.155677 2.492208 0.000000 0.000000 0.000000 
-0.084691 1.050423 0.111066 -0.670867 -6.712874 -1.628691 8.238198 0.028226 -3.309793 -0.792294 1.143293 -25.375562 29.803803 24.854141 113.072194 0.000000 0.000000 0.000000 -0.051347 0.845428 -8.386699 1.246874 -0.420707 -18.778213 -29.663492 -18.926058 125.876349 0.000000 0.000000 0.000000 -7.351925 0.404193 11.479369 6.481576 1.792983 -49.434413 4.469368 0.040626 54.058563 -9.680008 4.179069 -93.341085 0.000000 0.000000 0.000000 19.295999 5.856263 -3.150064 15.747785 17.629351 6.480198 18.980251 26.831125 3.009841 0.000000 0.000000 0.000000 -34.744701 -3.421419 -1.438559 2.285734 -21.879989 0.033861 -14.887297 -25.392839 2.317173 0.000000 0.000000 0.000000 
-0.079065 1.059599 0.118416 -1.028152 -7.426653 -2.010298 7.741238 0.058713 -2.079867 0.098510 1.290417 -25.712748 27.345339 24.986169 110.711492 0.000000 0.000000 0.000000 -0.873654 0.700591 -7.278448 1.592149 -0.365577 -19.690973 -27.605147 -18.502726 125.539389 0.000000 0.000000 0.000000 -6.579132 0.273644 10.188368 6.197473 1.690225 -48.049457 5.408957 0.440202 54.484920 -9.832296 4.166237 -92.094602 0.000000 0.000000 0.000000 23.133738 7.340429 -3.699851 19.295065 21.969294 8.608132 20.486922 23.072589 2.890531 0.000000 0.000000 0.000000 -39.336966 -5.287266 -1.779181 -3.808414 -25.360281 2.314028 -14.861498 -22.510804 2.068983 0.000000 0.000000 0.000000 
-0.074940 1.061975 0.125574 -1.635662 -7.039471 -2.229138 8.123119 0.082112 -1.544191 -0.018786 1.216833 -25.166696 26.063510 24.802746 109.295945 0.000000 0.000000 0.000000 -1.057280 0.614474 -6.445636 0.807529 -0.448824 -20.239904 -22.391991 -18.202212 125.462035 0.000000 0.000000 0.000000 -7.004689 0.303398 10.263289 7.355720 1.769979 -49.196944 5.459816 0.463276 55.972815 -10.533194 4.007631 -93.216862 0.000000 0.000000 0.000000 25.694587 8.981454 -4.225510 25.701221 23.722299 11.501869 17.666531 20.027978 1.962915 0.000000 0.000000 0.000000 -41.002337 -5.202545 -2.284302 -11.598770 -27.557438 5.414802 -13.701917 -21.173118 1.700711 0.000000 0.000000 0.000000 
-0.072685 1.058801 0.131794 -2.086328 -7.773071 -3.083708 8.535596 0.160036 -0.384662 -0.001711 1.203411 -24.482301 27.327976 25.175179 109.180807 0.000000 0.000000 0.000000 -1.243878 0.451941 -4.754868 0.733234 -0.422651 -21.430876 -22.965624 -18.208638 123.871656 0.000000 0.000000 0.000000 -6.762227 0.241767 9.611399 7.758483 1.594501 -47.553207 6.454002 1.149030 56.005805 -10.111305 3.975447 -92.596032 0.000000 0.000000 0.000000 29.255105 10.038124 -4.415851 29.250335 23.743948 12.901154 14.827628 18.833979 1.436323 0.000000 0.000000 0.000000 -43.433418 -5.060314 -2.474992 -17.395224 -29.309935 7.876499 -11.677157 -18.369233 1.205493 0.000000 0.000000 0.000000 
-0.072180 1.053323 0.135785 -2.143215 -8.273084 -3.135803 8.702697 0.196923 0.429233 0.735915 1.325534 -24.887783 27.027187 25.189713 110.366123 0.000000 0.000000 0.000000 -1.103672 0.335669 -3.458671 0.106094 -0.458692 -22.884679 -25.412302 -18.111019 124.509881 0.000000 0.000000 0.000000 -7.122943 0.253938 8.905574 9.015760 1.623515 -47.594848 6.215138 1.751714 57.041395 -9.503762 3.908655 -93.162651 0.000000 0.000000 0.000000 31.487663 9.410403 -4.542682 33.095297 24.060716 14.475603 12.384815 19.669797 1.065610 0.000000 0.000000 0.000000 -45.413160 -4.298596 -2.875396 -21.941683 -29.364958 9.642140 -9.405311 -17.271895 0.797364 0.000000 0.000000 0.000000 
-0.072689 1.048958 0.138192 -2.286595 -9.526675 -3.617348 8.414934 0.255941 1.220954 2.155390 1.484208 -24.534768 27.450683 25.553398 111.354249 0.000000 0.000000 0.000000 -0.861851 0.248198 -2.499234 0.732385 -0.313882 -23.245371 -28.982739 -18.207498 123.309410 0.000000 0.000000 0.000000 -6.739889 0.213619 8.705288 9.334280 1.623945 -46.941156 6.640240 2.924513 57.110661 -7.101566 3.881892 -92.824634 0.000000 0.000000 0.000000 33.543113 9.453778 -4.558686 34.243500 23.181640 14.633903 11.146162 20.421441 0.883406 0.000000 0.000000 0.000000 -46.719073 -4.807758 -3.064755 -23.812244 -28.550139 10.256449 -6.886827 -16.760234 0.403414 0.000000 0.000000 0.000000 
-0.073299 1.046560 0.139433 -1.824593 -9.643502 -3.998360 7.967231 0.280501 1.929239 2.368819 1.558399 -25.022831 30.406854 25.987851 111.275507 0.000000 0.000000 0.000000 -1.448307 0.152454 -1.295270 1.066358 -0.257079 -23.701458 -31.942481 -18.731079 122.351623 0.000000 0.000000 0.000000 -6.885805 0.219248 8.719757 8.961232 1.571222 -46.493342 6.571661 2.708591 56.188330 -6.715403 4.030128 -91.473046 0.000000 0.000000 0.000000 34.804987 8.011536 -4.427890 35.238137 23.566500 15.128101 9.701625 21.229589 0.686958 0.000000 0.000000 0.000000 -48.146932 -5.107648 -2.735745 -23.775803 -26.314853 9.672392 -5.818113 -17.178776 0.223171 0.000000 0.000000 0.000000 
-0.073548 1.047560 0.139859 -1.854473 -9.360825 -4.107191 7.975750 0.292584 2.489378 2.537513 1.610350 -25.515329 29.942199 25.958433 110.143240 0.000000 0.000000 0.000000 -1.576055 0.083545 -0.411208 0.931131 -0.282933 -24.280870 -28.322079 -18.403769 122.448274 0.000000 0.000000 0.000000 -6.727000 0.189224 8.346479 8.350020 1.466338 -45.890229 6.923813 1.845463 55.618496 -6.731667 4.167034 -91.172215 0.000000 0.000000 0.000000 33.870040 6.573506 -4.389164 35.229711 24.396889 15.484811 8.761593 22.061273 0.538079 0.000000 0.000000 0.000000 -47.773159 -5.809399 -2.364687 -23.787366 -25.048554 9.319474 -4.404427 -17.561334 -0.041663 0.000000 0.000000 0.000000 
-0.073095 1.054758 0.139515 -1.673127 -8.711470 -4.332560 7.593316 0.276818 2.488041 2.546003 1.550798 -25.235562 28.412438 25.623966 109.431479 0.000000 0.000000 0.000000 -2.187023 0.113682 -0.649081 0.664243 -0.367934 -23.016235 -24.892720 -18.346359 122.001928 0.000000 0.000000 0.000000 -6.666362 0.166044 8.130328 8.882346 1.374262 -45.717137 6.337109 1.620393 55.623679 -6.180636 4.203207 -90.867779 0.000000 0.000000 0.000000 33.004489 5.276489 -4.152314 32.269284 24.914794 14.369675 8.066662 24.240272 0.426387 0.000000 0.000000 0.000000 -47.625330 -7.077672 -2.252915 -21.380359 -23.447003 8.219744 -3.038376 -17.290127 -0.253102 0.000000 0.000000 0.000000 
-0.071780 1.067042 0.138424 -1.172258 -9.725442 -4.643403 7.174005 0.310870 2.634834 2.258522 1.538569 -24.850676 26.564974 25.679267 109.244156 0.000000 0.000000 0.000000 -3.044618 0.161512 -0.980070 1.730012 -0.227221 -20.758154 -24.466197 -17.967442 121.117098 0.000000 0.000000 0.000000 -6.248338 0.140159 8.128092 7.976725 1.218058 -43.872472 6.354111 2.426133 52.325546 -6.031963 4.264385 -89.626053 0.000000 0.000000 0.000000 33.069189 2.166525 -3.450321 28.191783 24.827739 12.575681 6.593486 26.035505 0.208954 0.000000 0.000000 0.000000 -48.167728 -4.983660 -1.601418 -15.785722 -21.804067 5.984148 -2.056223 -18.122759 -0.417930 0.000000 0.000000 0.000000 
-0.069942 1.073807 0.138142 -0.543996 -8.500693 -5.416108 5.650148 0.305557 3.012692 2.318809 1.434429 -24.244245 27.200031 25.418357 109.935262 0.000000 0.000000 0.000000 -3.332654 0.113631 -0.348069 1.319283 -0.327077 -20.187819 -21.335188 -18.193971 120.240284 0.000000 0.000000 0.000000 -5.713427 0.108778 9.461499 7.331832 1.512644 -46.310440 4.220537 1.042527 53.743212 -3.649199 4.583153 -90.449548 0.000000 0.000000 0.000000 32.417124 1.506364 -3.706244 21.445920 23.679692 9.747202 5.115224 27.087239 -0.003641 0.000000 0.000000 0.000000 -46.443563 -5.593842 -1.330062 -9.935188 -17.530677 3.644335 -0.352771 -19.203477 -0.807055 0.000000 0.000000 0.000000 
-0.068519 1.069338 0.137705 -0.184434 -6.588224 -5.377308 5.357592 0.289343 3.361900 0.482706 1.274290 -25.573831 32.269543 25.441704 110.962862 0.000000 0.000000 0.000000 -3.210474 0.132349 -0.867861 0.891514 -0.445270 -20.675650 -24.051698 -18.751634 123.387601 0.000000 0.000000 0.000000 -6.138346 0.142089 10.118500 7.250345 1.380067 -46.425354 3.005182 0.174764 51.936371 -3.884726 4.727438 -92.596022 0.000000 0.000000 0.000000 27.489704 0.311761 -2.826526 15.744223 19.888243 6.732831 3.625061 30.244223 -0.440335 0.000000 0.000000 0.000000 -42.072236 -2.943015 -1.016934 -4.575954 -14.716419 1.885799 0.759678 -20.169642 -1.068601 0.000000 0.000000 0.000000 
-0.067997 1.051921 0.137491 0.355927 -5.782699 -5.671815 4.709209 0.291435 3.457057 -0.560816 1.284909 -28.309844 43.031590 25.443777 116.439396 0.000000 0.000000 0.000000 -2.862730 0.066250 -0.100369 1.383465 -0.434231 -23.636560 -31.237507 -19.258725 126.073417 0.000000 0.000000 0.000000 -6.175535 0.156867 11.090592 7.370370 1.366672 -46.837550 1.707983 1.272348 50.876171 -2.858426 4.547142 -92.575055 0.000000 0.000000 0.000000 21.559868 -2.072243 -1.400948 10.750930 16.383031 4.348397 -0.050021 33.339271 -1.774320 0.000000 0.000000 0.000000 -34.496318 0.494259 -0.828954 0.400160 -11.265651 0.425197 2.468224 -21.257692 -1.440857 0.000000 0.000000 0.000000 
-0.068618 1.030790 0.138126 0.389873 -4.428009 -5.565255 5.786402 0.263898 3.685122 -3.816360 0.808962 -29.885298 50.909717 24.869170 119.225352 0.000000 0.000000 0.000000 -1.436724 -0.008258 0.424710 1.217059 -0.543493 -25.316553 -40.497633 -19.804780 129.014581 0.000000 0.000000 0.000000 -6.511905 0.218107 12.760817 7.465848 1.494787 -49.025836 1.557389 0.852486 50.566113 -3.537554 4.454827 -93.240269 0.000000 0.000000 0.000000 12.844606 -2.638406 -0.258875 4.679619 10.200698 1.860326 -4.159003 36.240935 -3.414981 0.000000 0.000000 0.000000 -25.272026 4.418008 0.013226 7.290099 -5.585383 -1.273078 2.784398 -24.987294 -1.738435 0.000000 0.000000 0.000000 
-0.069573 1.016182 0.138723 0.624272 -5.029848 -5.585881 5.960349 0.309897 4.410601 -3.709711 0.978728 -33.401324 52.912076 23.923300 123.113238 0.000000 0.000000 0.000000 -1.628181 -0.076127 1.358146 3.944147 -0.102428 -27.596133 -55.489993 -19.852952 130.545905 0.000000 0.000000 0.000000 -6.369230 0.187359 11.767044 7.787091 1.219566 -46.321601 1.874833 2.304056 47.218338 -4.145707 4.145847 -89.065585 0.000000 0.000000 0.000000 6.132021 -5.464093 1.351739 -4.362407 3.729856 -0.783994 -6.695170 40.349909 -4.604805 0.000000 0.000000 0.000000 -18.339083 10.015395 1.449449 16.876793 0.824323 -2.768667 4.628629 -28.681350 -2.270308 0.000000 0.000000 0.000000 
-0.070248 1.017622 0.137844 0.652051 -4.901943 -6.947166 6.489144 0.377388 5.633603 -3.949786 0.919635 -33.631923 50.431554 23.336010 124.360140 0.000000 0.000000 0.000000 -0.532951 -0.150797 1.829293 4.024277 -0.147882 -25.641129 -59.669828 -20.515525 129.616853 0.000000 0.000000 0.000000 -6.563988 0.228715 13.601951 7.646239 1.061620 -45.216013 2.271351 2.068704 45.109751 -0.530772 4.269551 -87.922807 0.000000 0.000000 0.000000 0.946371 -6.261869 2.085674 -15.312711 -4.325675 -2.759388 -4.619854 41.954065 -3.399641 0.000000 0.000000 0.000000 -13.496331 13.276278 2.708850 27.249104 9.115755 -3.022886 4.414938 -31.580171 -2.144278 0.000000 0.000000 0.000000 
-0.069501 1.023079 0.135558 0.616443 -5.812800 -7.614001 6.679809 0.414226 5.745434 -3.937734 1.000941 -33.126597 47.668114 23.234504 125.535072 0.000000 0.000000 0.000000 -0.849658 -0.204808 2.632187 5.973197 0.170051 -25.331266 -61.256397 -21.187245 127.657562 0.000000 0.000000 0.000000 -5.746559 0.117798 12.532635 7.789980 0.751090 -42.384392 2.390220 3.616146 43.274867 -0.064962 3.991267 -85.154811 0.000000 0.000000 0.000000 -1.253372 -8.212732 2.948998 -24.895341 -10.996824 -3.188970 -5.792295 42.249452 -3.489510 0.000000 0.000000 0.000000 -8.964434 16.887852 4.067612 35.367380 17.399584 -1.464573 4.610442 -34.106101 -1.989167 0.000000 0.000000 0.000000 
-0.066751 1.024366 0.135141 0.677775 -4.504750 -8.333923 7.032358 0.411586 6.404760 -5.489210 0.599180 -33.827070 50.665500 22.465832 126.385497 0.000000 0.000000 0.000000 0.516623 -0.440588 4.552645 4.872687 -0.032333 -27.071161 -63.017510 -21.870543 127.823716 0.000000 0.000000 0.000000 -5.095369 0.015999 12.391168 7.360330 0.553355 -41.125334 1.553219 3.047883 42.732774 0.518690 3.922358 -83.453826 0.000000 0.000000 0.000000 -0.900022 -8.655626 3.055464 -28.897814 -11.980804 -3.284472 -4.499067 38.245226 -2.564199 0.000000 0.000000 0.000000 -9.868409 19.102777 4.421301 37.316084 20.498773 -0.370000 6.720284 -33.037461 -2.545995 0.000000 0.000000 0.000000 
-0.062575 1.020540 0.137715 0.920015 -5.070150 -6.955261 6.137761 0.454995 7.016477 -4.855619 0.846370 -36.336175 48.361977 24.147896 121.518907 0.000000 0.000000 0.000000 -0.653354 -0.509764 6.151626 7.291629 0.558336 -30.377223 -66.881465 -24.596482 123.208124 0.000000 0.000000 0.000000 -4.586815 -0.020415 9.963869 6.359566 0.486801 -39.227772 2.359376 3.239350 40.120841 1.795134 3.709738 -79.944120 0.000000 0.000000 0.000000 -0.363566 -6.971353 2.444425 -26.587573 -9.144737 -3.470033 -3.348312 35.815335 -2.122051 0.000000 0.000000 0.000000 -12.322686 18.130035 3.891464 37.515146 16.568664 -1.306458 2.181135 -30.749635 -1.069366 0.000000 0.000000 0.000000 
-0.059718 1.017165 0.141628 1.041722 -5.447528 -5.612897 6.107874 0.441653 7.023863 -5.238194 0.860314 -37.954127 55.360828 24.058751 123.329186 0.000000 0.000000 0.000000 0.036801 -0.704002 7.880932 7.005114 0.903207 -36.491609 -65.908725 -23.981532 124.140926 0.000000 0.000000 0.000000 -2.870257 -0.120291 7.864682 5.363471 0.721987 -40.191808 1.353466 4.733215 42.383714 2.490303 3.357284 -78.481039 0.000000 0.000000 0.000000 6.507908 -5.739043 1.651217 -23.523470 -2.558057 -4.072281 -4.732495 34.562661 -2.709686 0.000000 0.000000 0.000000 -14.891462 10.518173 1.815031 33.447749 12.304992 -2.482878 1.635626 -26.437117 -0.811487 0.000000 0.000000 0.000000 
-0.059576 1.030818 0.141059 1.951243 -5.678514 -4.710501 4.703767 0.494334 7.019687 -4.018030 1.158163 -37.386171 44.130771 24.452810 120.548461 0.000000 0.000000 0.000000 -1.557283 -0.485095 6.906430 6.367825 0.812803 -36.500489 -65.069086 -22.856283 125.799439 0.000000 0.000000 0.000000 -4.871472 0.006523 6.419512 6.709989 0.782615 -41.597844 1.490911 4.324033 45.454932 4.832776 3.250319 -79.998101 0.000000 0.000000 0.000000 7.458808 -3.608813 0.864284 -14.390641 6.382690 -3.218861 -4.915498 32.005450 -2.791437 0.000000 0.000000 0.000000 -19.294000 4.383476 0.253077 26.855595 5.097923 -3.647079 -1.455294 -21.646730 -0.160856 0.000000 0.000000 0.000000 
-0.061083 1.056251 0.135566 1.630726 -6.961532 -2.927762 5.453110 0.181028 1.997616 -2.606726 1.271895 -30.899457 36.674626 24.595531 120.344107 0.000000 0.000000 0.000000 -1.080144 -0.193463 2.814564 4.746721 0.400762 -32.154491 -46.248624 -20.534552 125.540781 0.000000 0.000000 0.000000 -3.351246 -0.030818 3.317322 4.781646 0.870491 -40.221280 2.650723 3.019477 44.798585 1.098535 3.352752 -74.182994 0.000000 0.000000 0.000000 16.297277 -1.056800 -0.500922 -11.274680 14.948529 -2.672213 1.292502 31.877966 -0.790833 0.000000 0.000000 0.000000 -30.638630 1.200659 -0.222131 26.959119 -3.151110 -4.875944 -5.343805 -19.192637 0.531053 0.000000 0.000000 0.000000 
-0.062549 1.081786 0.129422 1.528419 -7.632383 -3.292286 4.966435 0.040425 -0.836670 -2.386427 1.042795 -24.880129 33.322497 25.328575 115.565987 0.000000 0.000000 0.000000 0.987233 0.100168 -1.198140 1.624917 -0.300595 -23.064829 -34.602150 -20.084645 121.346132 0.000000 0.000000 0.000000 -3.107633 -0.055539 5.396756 4.360621 1.229805 -42.887168 3.883912 5.552709 48.921463 1.717534 3.209221 -79.974022 0.000000 0.000000 0.000000 24.908408 0.296989 -1.052133 -4.899423 21.851370 -0.755247 7.608269 30.357830 0.739680 0.000000 0.000000 0.000000 -31.144357 -7.004904 -2.020741 14.596709 -10.446198 -3.123615 -9.717081 -20.014913 1.415710 0.000000 0.000000 0.000000 
-0.063026 1.095679 0.126518 0.762203 -9.361648 -2.239821 3.119529 -0.243641 -4.498304 1.949548 0.997287 -18.988206 21.076131 24.998501 108.064392 0.000000 0.000000 0.000000 1.268592 0.449879 -4.540851 2.157455 -0.232018 -18.931619 -31.668212 -19.574493 119.252730 0.000000 0.000000 0.000000 -2.105694 -0.060661 3.151326 3.791135 1.376967 -42.988465 5.537999 3.629464 51.368678 -0.690969 3.531788 -79.189826 0.000000 0.000000 0.000000 28.350712 1.220801 -2.325359 5.168540 29.870377 3.697101 15.481876 27.609539 2.749886 0.000000 0.000000 0.000000 -38.302739 -7.882645 -1.541043 4.994508 -16.582256 -0.710063 -13.310893 -18.571622 1.755358 0.000000 0.000000 0.000000 
-0.062668 1.105230 0.126525 0.465403 -8.926393 -2.233307 2.182696 -0.346733 -5.189654 2.345568 0.838459 -17.039008 18.947538 24.549084 102.344304 0.000000 0.000000 0.000000 2.124689 0.619286 -5.842436 0.490770 -0.376638 -15.625056 -23.106022 -18.976596 116.695683 0.000000 0.000000 0.000000 -2.318622 -0.059824 3.482551 3.787941 1.378559 -43.365997 6.915801 3.050041 52.985164 -5.015078 3.851698 -81.140661 0.000000 0.000000 0.000000 29.856146 2.580313 -2.824842 13.118582 34.570192 7.773978 19.802474 22.601401 3.033385 0.000000 0.000000 0.000000 -42.567375 -9.394519 -1.892194 -3.435331 -23.428452 2.210340 -16.640769 -17.486400 2.158095 0.000000 0.000000 0.000000 
-0.062030 1.113217 0.127896 0.502632 -9.141014 -2.278661 1.230197 -0.447438 -5.777537 3.525721 0.770327 -15.915897 14.849534 23.760754 101.033998 0.000000 0.000000 0.000000 2.116813 0.756882 -6.953081 0.962451 -0.343705 -13.761456 -25.159191 -19.401973 115.983563 0.000000 0.000000 0.000000 -2.313941 -0.061106 3.506867 3.985849 1.450722 -44.032487 7.981502 4.944197 54.452843 -6.263503 3.683373 -81.665148 0.000000 0.000000 0.000000 31.709855 4.401826 -2.751827 13.702329 36.621995 8.134710 25.711072 19.506992 3.414891 0.000000 0.000000 0.000000 -44.554995 -9.911650 -2.657900 -8.461769 -28.239345 4.594666 -21.527922 -18.763129 3.268513 0.000000 0.000000 0.000000 
-0.061459 1.117633 0.129353 0.089344 -8.123462 -2.326991 0.731276 -0.559099 -6.760553 3.529980 0.629088 -14.462764 14.873768 23.519723 101.386399 0.000000 0.000000 0.000000 2.951868 0.755281 -6.668334 -0.008833 -0.384806 -13.066751 -20.188944 -19.330832 113.813722 0.000000 0.000000 0.000000 -1.691321 -0.089519 3.684347 3.312686 1.471202 -44.634979 7.849613 3.689184 54.792100 -8.735500 3.968084 -81.508398 0.000000 0.000000 0.000000 29.544606 5.010533 -2.823458 11.814815 37.627273 7.355519 29.830011 23.340477 4.897738 0.000000 0.000000 0.000000 -45.004575 -9.075241 -2.551274 -8.334363 -29.230411 4.581041 -21.419351 -22.754083 3.780407 0.000000 0.000000 0.000000 
-0.061266 1.110985 0.131995 0.843485 -7.840395 -1.195595 -0.111930 -0.647498 -7.081607 2.715453 0.790776 -16.528308 18.631343 24.244070 103.365632 0.000000 0.000000 0.000000 2.051006 0.818972 -7.492735 0.283564 -0.390626 -13.649512 -21.736126 -19.429192 115.501249 0.000000 0.000000 0.000000 -2.631054 -0.027839 2.700074 3.921867 1.495810 -45.105962 7.437095 4.319396 54.662332 -9.900849 3.879739 -82.757758 0.000000 0.000000 0.000000 26.311711 4.386767 -2.282592 1.422311 34.878067 2.067666 34.659452 28.439000 7.269610 0.000000 0.000000 0.000000 -42.709879 -8.939311 -2.628665 -2.578539 -29.473580 2.383639 -18.038015 -25.835065 3.575049 0.000000 0.000000 0.000000 
-0.061324 1.090896 0.136043 1.354412 -6.943505 -1.502698 -0.644520 -0.624496 -6.417078 1.944247 0.895706 -18.391158 27.989411 25.270062 109.619208 0.000000 0.000000 0.000000 2.015896 0.646134 -6.056201 0.822039 -0.423253 -16.790630 -27.312506 -20.384202 117.191129 0.000000 0.000000 0.000000 -2.655136 -0.037123 3.130431 3.530550 1.532972 -45.920202 5.919728 4.798249 54.349175 -9.349935 3.643357 -84.726840 0.000000 0.000000 0.000000 22.368205 2.906606 -1.623693 -6.831464 29.156346 -1.761650 32.006996 37.140196 8.831687 0.000000 0.000000 0.000000 -35.136887 -6.072386 -2.668223 6.579520 -25.787692 -1.273053 -14.814429 -34.903439 3.820963 0.000000 0.000000 0.000000 
-0.061199 1.060114 0.141783 2.153202 -4.553712 -2.926909 -1.237008 -0.312501 -2.948947 0.453571 0.958099 -21.615421 35.876429 25.531349 110.897428 0.000000 0.000000 0.000000 1.276092 0.352814 -3.491115 1.441551 -0.475624 -18.847120 -38.735512 -21.832403 121.438990 0.000000 0.000000 0.000000 -3.955440 -0.022204 5.248421 4.848141 1.467084 -47.798758 4.431926 4.757235 53.961827 -9.988348 3.321935 -87.092664 0.000000 0.000000 0.000000 13.427447 1.709432 -0.820367 -15.481651 17.980960 -4.649679 24.505995 47.682549 8.220492 0.000000 0.000000 0.000000 -25.612594 -1.814008 -2.183083 20.606616 -20.597753 -6.096651 -15.453907 -41.605845 5.545140 0.000000 0.000000 0.000000 
-0.061333 1.030656 0.146713 2.953987 -3.164707 -3.912713 -1.587514 -0.110739 -0.959471 -1.078355 0.944411 -25.278185 48.996627 26.171332 113.793340 0.000000 0.000000 0.000000 0.108887 -0.064153 0.667746 4.209467 -0.243902 -25.769264 -57.767241 -22.156546 127.508298 0.000000 0.000000 0.000000 -5.195801 0.016487 5.889510 5.725077 1.223325 -46.864087 3.195250 4.690264 52.164161 -10.712671 3.359817 -86.343387 0.000000 0.000000 0.000000 4.999887 -3.329269 0.977986 -22.765965 8.537550 -6.013055 -0.231339 49.625160 -2.429373 0.000000 0.000000 0.000000 -14.982074 4.697474 -0.096858 33.570044 -10.075690 -8.390970 -4.449332 -44.756857 1.932756 0.000000 0.000000 0.000000 
-0.062702 1.024312 0.146972 2.619437 -1.215083 -5.465530 -1.596801 0.083559 0.866750 -1.530113 0.810014 -26.475990 49.675080 25.888080 112.903622 0.000000 0.000000 0.000000 0.492577 -0.256077 2.481252 4.091282 -0.398547 -26.554201 -61.772324 -21.932214 130.370861 0.000000 0.000000 0.000000 -5.560690 0.000391 7.129711 5.711908 1.016652 -46.636646 1.944799 2.830845 50.323971 -8.113122 3.568216 -85.518623 0.000000 0.000000 0.000000 -3.789141 -6.442541 2.484298 -30.194374 -3.353732 -5.862855 -12.486591 44.338547 -6.479655 0.000000 0.000000 0.000000 -6.037496 9.678308 2.431256 42.062049 3.266434 -6.639800 4.013860 -42.245084 -1.361569 0.000000 0.000000 0.000000 
-0.065297 1.028393 0.143595 2.954967 -0.795983 -5.911585 -1.077674 0.053823 0.595507 -2.915782 0.628090 -27.081492 53.364260 25.675864 114.490617 0.000000 0.000000 0.000000 -0.605068 -0.172047 1.921301 5.566401 -0.256023 -25.400348 -65.146181 -21.433862 131.967176 0.000000 0.000000 0.000000 -5.322046 -0.027931 6.630483 5.327657 0.979667 -46.334626 1.280816 2.517686 49.377609 -8.486135 3.739913 -83.450443 0.000000 0.000000 0.000000 -8.566215 -10.168171 4.254106 -37.974169 -14.613342 -4.034170 -11.438859 37.982161 -4.703047 0.000000 0.000000 0.000000 -2.391350 13.350532 4.053811 53.028978 16.141667 -2.327663 11.057115 -39.348093 -3.452861 0.000000 0.000000 0.000000 
-0.068935 1.034256 0.141696 2.778644 0.069719 -6.652681 -0.098969 0.159758 1.722315 -4.296730 0.384404 -27.522351 52.106078 24.996659 115.037386 0.000000 0.000000 0.000000 0.030446 -0.225020 2.268573 4.874996 -0.410375 -24.368164 -60.293899 -22.038631 131.088398 0.000000 0.000000 0.000000 -4.757136 -0.074524 6.534150 3.786614 0.957936 -46.059665 1.045006 0.805862 48.232676 -7.650158 3.892504 -83.760221 0.000000 0.000000 0.000000 -11.233978 -11.712747 5.254762 -39.972776 -22.800114 -1.519330 -11.538625 34.885062 -4.160880 0.000000 0.000000 0.000000 0.606478 16.517959 5.564381 57.329413 24.337435 1.923414 12.949425 -37.030399 -3.976322 0.000000 0.000000 0.000000 
-0.072511 1.029594 0.143653 2.733227 0.032578 -7.021107 -0.036820 0.285906 3.087411 -4.636126 0.333928 -28.803944 52.495877 25.266848 114.459465 0.000000 0.000000 0.000000 0.157532 -0.247843 2.467264 5.889877 -0.319988 -23.159898 -61.785391 -24.889822 125.128747 0.000000 0.000000 0.000000 -3.841720 -0.107791 5.313093 3.497920 0.878231 -44.438053 0.137754 1.832145 47.379546 -6.638979 3.737281 -83.227815 0.000000 0.000000 0.000000 -14.409608 -14.398031 6.649596 -38.759866 -24.975867 -0.846580 -10.188153 31.540512 -3.477055 0.000000 0.000000 0.000000 5.463773 16.838452 6.593583 57.797122 26.919000 3.241553 8.527021 -31.936830 -2.093400 0.000000 0.000000 0.000000 
-0.075767 1.006035 0.149498 2.266244 0.322249 -7.201818 2.007241 0.624427 8.195549 -7.480429 -0.381320 -36.618930 57.468040 24.728550 117.106835 0.000000 0.000000 0.000000 0.057141 -0.558134 5.582404 8.134022 0.017947 -27.624438 -75.452300 -27.935472 122.959598 0.000000 0.000000 0.000000 -3.481180 -0.118656 4.965953 3.432054 0.976983 -46.701227 0.227411 1.848010 49.783536 -8.279061 3.560116 -86.663942 0.000000 0.000000 0.000000 -16.908526 -14.531163 7.055951 -36.805324 -26.445165 -0.890437 -6.346738 30.301384 -2.282830 0.000000 0.000000 0.000000 7.866500 15.897678 6.734966 55.643699 26.086877 1.958951 5.762484 -28.627496 -1.152939 0.000000 0.000000 0.000000 
-0.077773 0.961840 0.159190 2.300291 -0.249972 -6.833440 3.583504 0.968166 15.216212 -10.108978 -1.628503 -49.843579 67.899717 23.773431 121.775969 0.000000 0.000000 0.000000 -0.013790 -1.153290 11.747058 9.825824 0.954057 -39.793871 -98.417414 -31.037545 123.746189 0.000000 0.000000 0.000000 -2.965845 -0.083024 2.003562 3.864908 0.954711 -45.862197 -1.190527 2.532181 50.862538 -9.469643 3.423998 -89.408401 0.000000 0.000000 0.000000 -19.667667 -14.813506 7.613000 -31.978912 -23.350875 -2.133276 -5.637413 27.900659 -2.029244 0.000000 0.000000 0.000000 14.057967 16.839799 8.317551 48.096747 21.949569 -1.218399 2.018003 -22.434380 -0.305333 0.000000 0.000000 0.000000 
-0.078706 0.904248 0.171117 2.387372 0.186934 -6.795989 4.789727 1.103786 21.426684 -14.035385 -4.229730 -60.693610 85.418179 24.299956 122.780265 0.000000 0.000000 0.000000 -1.242823 -1.720282 19.472397 13.676812 3.069650 -53.357535 -130.298154 -37.848422 124.985694 0.000000 0.000000 0.000000 -3.343932 -0.081938 1.880816 4.759633 1.174274 -50.509121 -1.806764 3.243881 56.597357 -11.726432 3.277953 -90.905345 0.000000 0.000000 0.000000 -21.988303 -15.373152 8.215985 -27.499190 -21.999461 -2.935873 -3.556933 27.208326 -1.544027 0.000000 0.000000 0.000000 17.529422 16.015995 8.889046 38.512211 18.721168 -3.479907 1.651732 -21.378968 -0.281431 0.000000 0.000000 0.000000 
-0.079461 0.851617 0.182196 2.045858 -0.993078 -6.106444 5.056842 1.570524 29.182018 -14.680106 -5.624037 -73.672968 87.758865 26.687499 120.083826 0.000000 0.000000 0.000000 -3.456651 -1.805099 28.271163 19.967796 8.603815 -69.166392 -137.853005 -43.251069 123.318939 0.000000 0.000000 0.000000 -2.369992 0.000047 -1.854741 3.706455 1.332174 -51.008380 -1.694470 2.795183 60.004697 -12.032773 3.604151 -90.586981 0.000000 0.000000 0.000000 -23.896492 -13.355861 7.964279 -22.562727 -19.710505 -3.601340 -1.186486 28.862755 -1.090306 0.000000 0.000000 0.000000 17.604824 16.224750 8.885239 32.139215 13.453091 -4.875438 -3.952100 -19.338660 0.740537 0.000000 0.000000 0.000000 
-0.080770 0.812254 0.189912 2.997173 -2.149579 -4.842953 3.060901 2.749686 35.040464 -14.394901 -6.182423 -84.634385 86.981943 27.654679 118.608512 0.000000 0.000000 0.000000 -6.746490 -0.865739 33.203383 24.341260 13.624109 -77.317122 -138.579304 -44.577687 122.560967 0.000000 0.000000 0.000000 -1.675086 0.083147 -3.738476 4.210473 1.683414 -53.876586 -4.007117 4.746192 63.212559 -7.292903 3.491730 -90.056127 0.000000 0.000000 0.000000 -23.484355 -11.669075 7.081682 -17.959159 -14.933853 -3.800309 0.875637 31.008330 -0.855460 0.000000 0.000000 0.000000 17.224592 16.442334 9.104751 25.277261 9.617339 -5.007507 -5.142129 -22.933180 1.015809 0.000000 0.000000 0.000000 
-0.083357 0.815419 0.191536 2.962234 -4.700621 -4.077616 1.455824 4.057778 38.026627 -12.096064 -3.569835 -87.877682 67.274420 27.719766 114.320204 0.000000 0.000000 0.000000 -8.926699 0.336846 35.230289 27.997846 17.563891 -78.469924 -124.502645 -44.611930 117.839811 0.000000 0.000000 0.000000 -2.010500 0.108752 -4.563890 6.485471 2.162829 -54.608211 -3.851018 6.165890 63.858564 -3.978801 3.411834 -87.987421 0.000000 0.000000 0.000000 -21.879539 -8.068907 5.184122 -12.355882 -10.393905 -3.163735 4.320845 33.034950 -0.266946 0.000000 0.000000 0.000000 9.984292 13.026189 6.181801 19.560685 6.456834 -4.352116 -6.824393 -23.447953 1.176531 0.000000 0.000000 0.000000 
-0.087469 0.852793 0.181996 3.260052 -6.269743 -5.911692 0.750954 4.071701 34.482488 -10.223681 -0.975177 -80.331298 72.992626 27.633143 117.223866 0.000000 0.000000 0.000000 -9.348746 0.604913 30.236247 29.705669 15.927241 -67.197612 -123.554664 -47.121780 115.039233 0.000000 0.000000 0.000000 -1.915531 0.015681 -1.647905 5.866138 1.030765 -43.397022 -2.831962 6.084728 50.398851 -2.080821 3.509845 -80.096880 0.000000 0.000000 0.000000 -14.505185 -6.587418 3.431678 -11.310228 -5.784302 -2.418235 5.221277 32.689262 0.065060 0.000000 0.000000 0.000000 0.188950 12.378108 4.128837 18.137132 3.263122 -3.360492 -5.146534 -22.595440 0.617717 0.000000 0.000000 0.000000 
-0.093005 0.929662 0.161422 3.566369 -7.525744 -5.493139 -0.486164 2.993203 24.043381 -6.558158 1.759772 -64.097190 60.840678 24.880444 122.816696 0.000000 0.000000 0.000000 -8.428182 0.231767 17.753638 26.450313 9.367672 -48.202974 -109.175991 -36.886065 118.352518 0.000000 0.000000 0.000000 -3.736219 -0.046806 1.874317 7.224285 1.361348 -45.324055 -1.571777 5.529559 51.433409 -4.426937 3.889975 -78.300189 0.000000 0.000000 0.000000 -3.455410 -0.883624 0.456799 -11.806752 -6.076554 -2.470589 5.741994 30.966969 0.380922 0.000000 0.000000 0.000000 -12.150182 8.074121 1.423651 17.679737 5.759749 -2.878965 -7.399851 -25.341240 1.133232 0.000000 0.000000 0.000000 
-0.099574 1.024835 0.136971 3.519578 -8.563702 -4.949910 -0.112442 1.356165 12.089802 0.100128 2.965601 -43.065174 33.576995 24.550985 123.042494 0.000000 0.000000 0.000000 -5.684418 0.027683 4.254782 17.771770 2.702941 -28.109952 -68.582737 -27.586590 116.511673 0.000000 0.000000 0.000000 -4.461522 -0.025798 3.026649 7.422280 0.737934 -40.330076 -0.841421 4.946073 44.910258 -4.910664 4.102879 -72.504957 0.000000 0.000000 0.000000 6.976646 0.135988 -0.337058 -10.243056 0.778086 -2.026058 3.753471 27.444718 -0.056156 0.000000 0.000000 0.000000 -26.362298 4.683569 0.261249 19.770309 2.874393 -2.889506 -8.344105 -21.446798 1.162250 0.000000 0.000000 0.000000 
-0.106260 1.109762 0.119246 3.185274 -8.439796 -4.708011 2.239976 0.585108 6.288814 1.265325 1.654994 -27.496774 5.270660 22.013202 104.939726 0.000000 0.000000 0.000000 -3.635504 0.350792 -3.759679 9.348091 -0.010957 -13.682319 -39.640298 -25.363274 106.587510 0.000000 0.000000 0.000000 -4.462398 -0.011786 4.603575 7.791082 0.473724 -38.711556 -1.607762 5.046051 41.026878 0.366806 3.085658 -66.018095 0.000000 0.000000 0.000000 16.210304 1.136234 -0.723572 -6.364134 2.179404 -1.130578 -0.239591 26.450581 -1.037580 0.000000 0.000000 0.000000 -35.360527 3.171043 -0.009113 15.548021 0.691792 -2.190199 -0.555420 -20.189096 -0.497242 0.000000 0.000000 0.000000 
-0.112487 1.163251 0.109604 2.772004 -6.433779 -6.057812 4.573777 0.314319 3.509409 1.410096 0.834878 -18.089890 1.269605 19.299807 94.687463 0.000000 0.000000 0.000000 -4.258117 0.299449 -3.471276 4.017698 -0.344801 -10.277153 -25.137127 -23.816014 98.803539 0.000000 0.000000 0.000000 -4.305786 -0.041396 6.596375 6.319310 0.251850 -36.463026 -0.965203 4.433650 39.654276 -1.343147 3.340074 -62.428952 0.000000 0.000000 0.000000 23.766413 1.795614 -0.736834 -3.766443 4.061316 -0.539231 0.810654 27.678948 -0.876450 0.000000 0.000000 0.000000 -39.533831 -0.318035 -0.343219 10.961873 -2.994641 -1.635863 0.789637 -16.782761 -0.633049 0.000000 0.000000 0.000000 
-0.117372 1.189609 0.104720 1.934113 -5.359918 -6.794434 6.293314 0.351922 4.716332 1.648373 0.904428 -19.498872 4.189816 20.082010 97.360676 0.000000 0.000000 0.000000 -5.158096 0.224949 -2.622403 1.612086 -0.342771 -9.138175 -20.452121 -22.687905 98.086244 0.000000 0.000000 0.000000 -5.472136 0.030830 9.108028 7.808915 0.357790 -39.385922 0.520054 4.136291 41.577828 -0.380414 3.212273 -67.554896 0.000000 0.000000 0.000000 23.891268 0.778497 -0.725832 1.379977 7.253313 0.729234 2.966934 29.725888 -0.535038 0.000000 0.000000 0.000000 -41.538214 -0.385029 -1.048890 7.014429 -9.001807 -1.066305 -2.896978 -16.638285 0.019611 0.000000 0.000000 0.000000 
-0.120141 1.187581 0.103269 0.865676 -6.862791 -6.542410 7.059090 0.281976 2.512399 4.222172 0.895913 -17.674459 0.068170 19.358807 97.233224 0.000000 0.000000 0.000000 -5.056585 0.256668 -2.883937 -0.242518 -0.326736 -10.051708 -14.086243 -20.229361 98.988654 0.000000 0.000000 0.000000 -3.688062 -0.072638 10.013102 7.772330 0.943472 -43.383785 0.181459 3.933239 47.011276 1.600443 3.094609 -73.928564 0.000000 0.000000 0.000000 26.706772 3.210973 -1.864908 5.855540 11.593971 2.282681 3.310607 27.593283 -0.377469 0.000000 0.000000 0.000000 -41.258112 -1.384676 -1.347515 0.400841 -14.212328 0.563568 -3.613516 -14.211882 0.085783 0.000000 0.000000 0.000000 
-0.120900 1.155002 0.108736 0.929864 -4.986419 -5.398549 7.779849 0.143823 0.017913 3.681055 0.973209 -19.239705 -5.292502 17.179241 95.376764 0.000000 0.000000 0.000000 -6.172963 0.266065 -3.262612 -0.993710 -0.535826 -15.983095 -9.701528 -18.828106 106.753329 0.000000 0.000000 0.000000 -3.930139 -0.062224 8.740736 6.565221 1.174618 -45.709560 1.101919 1.787725 51.812057 -5.459561 4.087056 -81.376054 0.000000 0.000000 0.000000 27.456326 4.779985 -2.676867 12.128847 13.775784 4.467838 6.393379 29.590447 0.291108 0.000000 0.000000 0.000000 -41.662967 -3.246698 -1.707393 -8.014050 -21.464347 3.549605 -3.584264 -11.538335 0.064023 0.000000 0.000000 0.000000 
-0.120767 1.104892 0.120482 0.579788 -5.548043 -4.915279 8.249865 0.180180 1.162224 4.087030 1.330979 -22.813307 -7.920967 16.776916 96.389417 0.000000 0.000000 0.000000 -6.778998 0.228684 -1.920493 1.648075 -0.425259 -21.757369 -27.550523 -21.776181 113.265753 0.000000 0.000000 0.000000 -2.923892 -0.116443 7.732153 6.880214 1.058844 -44.592248 0.772798 2.951388 52.940782 -0.515443 3.641806 -84.605195 0.000000 0.000000 0.000000 26.675416 8.115212 -3.298699 17.154854 15.494725 6.481439 7.103633 27.863871 0.276127 0.000000 0.000000 0.000000 -39.733590 -4.973112 -2.313458 -17.607853 -26.374638 7.640589 -4.558536 -7.980576 0.171294 0.000000 0.000000 0.000000 
-0.121054 1.061849 0.130838 0.220018 -4.772168 -3.728424 8.560910 0.225866 5.147375 4.080844 2.238848 -32.753915 0.922611 19.839606 104.330077 0.000000 0.000000 0.000000 -7.384651 0.154983 0.919234 1.104312 -0.553741 -29.340292 -38.052350 -21.407338 122.901630 0.000000 0.000000 0.000000 -1.833528 -0.180038 7.807246 5.568609 1.509392 -48.832058 1.140209 2.206965 57.247884 -2.919804 3.750731 -90.264030 0.000000 0.000000 0.000000 23.559929 7.247559 -3.497657 20.430852 17.691311 8.031754 8.231230 30.810246 0.294629 0.000000 0.000000 0.000000 -38.872894 -5.256447 -3.052695 -23.213310 -30.476321 10.638816 -5.121565 -8.190924 0.212319 0.000000 0.000000 0.000000 
-0.121656 1.050106 0.135420 0.057468 -5.935930 -2.746021 8.057897 0.303564 6.799279 5.344447 3.185558 -37.819373 0.670521 20.545142 108.069429 0.000000 0.000000 0.000000 -7.622377 0.214888 0.713909 3.022899 -0.070962 -32.589247 -45.334268 -20.031267 128.252827 0.000000 0.000000 0.000000 -1.737352 -0.158339 6.927443 3.903333 1.799381 -50.131554 3.325417 2.240847 57.793823 -2.697347 3.688828 -91.667076 0.000000 0.000000 0.000000 21.418264 4.440423 -2.776525 16.999526 19.379521 7.003099 12.617627 29.774413 1.542336 0.000000 0.000000 0.000000 -37.466017 -4.390091 -2.870333 -19.639935 -29.601718 8.974837 -8.784013 -11.053878 0.631369 0.000000 0.000000 0.000000 
-0.121832 1.068332 0.132679 0.325256 -6.213239 -4.493367 6.688439 0.304388 4.468605 6.149567 2.508582 -31.031776 -1.480678 20.440840 108.397132 0.000000 0.000000 0.000000 -6.313588 0.192445 -0.783459 0.614599 -0.508526 -26.123454 -31.380726 -19.983608 122.944218 0.000000 0.000000 0.000000 -2.131789 -0.159426 7.831035 5.167271 1.577994 -47.974639 0.521843 3.282494 55.255003 1.511174 3.697142 -87.289033 0.000000 0.000000 0.000000 21.732859 4.543696 -2.503810 10.076098 17.015741 4.252095 8.023481 24.934333 0.604861 0.000000 0.000000 0.000000 -35.677922 -2.062370 -2.075469 -8.105478 -23.036309 3.736234 -8.844429 -13.969709 0.790712 0.000000 0.000000 0.000000 
-0.121256 1.091096 0.128852 0.707192 -8.126316 -4.931708 5.745347 0.258922 2.394092 4.070599 1.824147 -26.478570 -1.958088 20.704508 106.061047 0.000000 0.000000 0.000000 -4.458076 0.266857 -2.491408 0.902721 -0.356150 -23.198154 -32.432152 -20.242683 119.108401 0.000000 0.000000 0.000000 -2.238928 -0.147256 8.695747 4.405301 1.659522 -46.692001 1.306013 4.772448 51.969494 4.432349 3.330444 -83.831578 0.000000 0.000000 0.000000 20.883515 0.905883 -1.401619 -0.701010 13.011257 0.474648 2.869729 26.481705 -0.412554 0.000000 0.000000 0.000000 -33.284884 -0.171876 -1.414613 5.015944 -12.882747 -0.746087 -7.296105 -19.323294 0.794666 0.000000 0.000000 0.000000 
-0.119718 1.105685 0.128628 0.341475 -7.829729 -5.572176 4.417969 0.180464 1.208333 3.474258 1.461375 -23.705810 2.109252 21.175652 104.975498 0.000000 0.000000 0.000000 -2.926833 0.317554 -3.445853 2.056728 -0.253203 -22.685711 -35.659352 -20.967452 118.697826 0.000000 0.000000 0.000000 -2.629734 -0.129300 9.205227 5.563761 1.607008 -46.862185 -0.360673 3.503352 51.674847 6.828895 3.797688 -85.768991 0.000000 0.000000 0.000000 15.133375 0.399274 -1.186279 -7.878550 8.615718 -1.678705 1.398184 25.901260 -0.574784 0.000000 0.000000 0.000000 -26.821906 3.826309 -0.252573 13.815217 -0.700823 -2.417573 -2.537395 -22.537361 -0.179294 0.000000 0.000000 0.000000 
-0.117962 1.103971 0.130785 -0.318640 -7.321639 -5.664824 4.383174 0.191478 1.493681 1.071959 1.069234 -21.479577 12.981022 22.939604 104.968677 0.000000 0.000000 0.000000 -1.030481 0.460248 -4.894639 1.020757 -0.402520 -20.461577 -36.656137 -21.830974 116.928478 0.000000 0.000000 0.000000 -2.480314 -0.144319 8.812162 6.148314 1.288895 -44.927597 -0.496044 4.141891 49.487307 7.359537 3.523410 -84.907110 0.000000 0.000000 0.000000 7.598453 -3.083741 0.496905 -13.290496 1.328070 -2.785508 -1.130443 31.606403 -1.480309 0.000000 0.000000 0.000000 -17.327722 6.198098 0.779506 17.257046 8.527521 -2.312298 1.726991 -24.877105 -1.167484 0.000000 0.000000 0.000000 
-0.116995 1.095994 0.134295 -0.511643 -7.397071 -6.064553 3.663871 0.223812 2.024361 -0.150655 1.110549 -23.368425 20.443057 24.166295 108.367300 0.000000 0.000000 0.000000 0.267641 0.366371 -3.687915 3.810179 -0.118290 -21.902589 -51.335615 -24.866418 115.746784 0.000000 0.000000 0.000000 -1.869980 -0.201339 10.090000 4.754857 1.580267 -46.953405 0.051279 4.736168 48.067626 8.359278 2.977962 -80.763248 0.000000 0.000000 0.000000 4.120555 -5.400084 1.561846 -21.825749 -6.384557 -3.621830 2.134685 33.012235 -0.317844 0.000000 0.000000 0.000000 -13.737552 8.023284 1.420050 28.590295 14.120912 -2.357735 -0.512724 -22.729472 -0.315809 0.000000 0.000000 0.000000 
-0.117133 1.083615 0.138641 -0.860160 -6.055814 -6.530710 1.748793 0.218492 2.176583 0.149443 1.092093 -23.680208 25.744506 24.622833 108.261091 0.000000 0.000000 0.000000 1.100576 0.226389 -2.224374 4.825838 -0.116144 -21.375559 -54.249277 -26.795033 113.701946 0.000000 0.000000 0.000000 -0.976265 -0.258669 8.861768 3.166230 1.336716 -44.932605 -0.581777 4.506714 48.216920 8.235233 3.068889 -82.031793 0.000000 0.000000 0.000000 -0.613526 -9.277780 3.254098 -29.315413 -11.374837 -3.820033 -2.910286 32.740260 -1.669962 0.000000 0.000000 0.000000 -5.153357 12.305711 3.382830 34.094420 20.285623 -1.232180 5.218320 -23.293389 -1.517475 0.000000 0.000000 0.000000 
